{
  "type": "FeatureCollection",
  "generator": "overpass-ide",
  "copyright": "The data included in this document is from www.openstreetmap.org. The data is made available under ODbL.",
  "timestamp": "2020-09-21T23:15:02Z",
  "features": [
    {
      "type": "Feature",
      "properties": {
        "@id": "node/183077379",
        "advertising": "yes",
        "amenity": "bicycle_rental",
        "brand": "Villo!",
        "capacity": "30",
        "mapillary": "-6BB7zjvmXmwUrPBIHNu1g",
        "name": "Louise - Louiza",
        "name:fr": "Louise",
        "name:nl": "Louiza",
        "network": "Villo!",
        "operator": "JCDecaux",
        "ref": "16",
        "support": "ground",
        "survey:date": "2018-12-27"
      },
      "geometry": {
        "type": "Point",
        "coordinates": [
          4.355695,
          50.8358773
        ]
      },
      "id": "node/183077379"
    },
    {
      "type": "Feature",
      "properties": {
        "@id": "node/234559687",
        "amenity": "bicycle_rental",
        "brand": "Villo!",
        "capacity": "25",
        "name": "Poelaert",
        "network": "Villo!",
        "operator": "JCDecaux",
        "ref": "37"
      },
      "geometry": {
        "type": "Point",
        "coordinates": [
          4.3530576,
          50.8379103
        ]
      },
      "id": "node/234559687"
    },
    {
      "type": "Feature",
      "properties": {
        "@id": "node/234559706",
        "amenity": "bicycle_rental",
        "brand": "Villo!",
        "capacity": "38",
        "name": "De Brouckère",
        "network": "Villo!",
        "operator": "JCDecaux",
        "ref": "21"
      },
      "geometry": {
        "type": "Point",
        "coordinates": [
          4.3533465,
          50.8523403
        ]
      },
      "id": "node/234559706"
    },
    {
      "type": "Feature",
      "properties": {
        "@id": "node/316950118",
        "addr:city": "Bruxelles - Brussel",
        "addr:postcode": "1000",
        "addr:street": "Avenue des Arts - Kunstlaan",
        "advertising": "yes",
        "amenity": "bicycle_rental",
        "brand": "Villo!",
        "capacity": "42",
        "name": "Arts-Loi - Kunst-Wet",
        "name:fr": "Arts-Loi",
        "name:nl": "Kunst-Wet",
        "network": "Villo!",
        "operator": "JCDecaux",
        "ref": "8"
      },
      "geometry": {
        "type": "Point",
        "coordinates": [
          4.3687936,
          50.8457119
        ]
      },
      "id": "node/316950118"
    },
    {
      "type": "Feature",
      "properties": {
        "@id": "node/316950720",
        "alt_name:de": "Königlicher Palast",
        "amenity": "bicycle_rental",
        "brand": "Villo!",
        "capacity": "20",
        "name": "Palais Royal - Koninklijk Paleis",
        "name:fr": "Palais Royal",
        "name:nl": "Koninklijk Paleis",
        "network": "Villo!",
        "operator": "JCDecaux",
        "ref": "20"
      },
      "geometry": {
        "type": "Point",
        "coordinates": [
          4.3606129,
          50.8436342
        ]
      },
      "id": "node/316950720"
    },
    {
      "type": "Feature",
      "properties": {
        "@id": "node/411020268",
        "amenity": "bicycle_rental",
        "brand": "Villo!",
        "capacity": "25",
        "name": "Jean Rey",
        "network": "Villo!",
        "operator": "JCDecaux",
        "ref": "68"
      },
      "geometry": {
        "type": "Point",
        "coordinates": [
          4.3803091,
          50.8402812
        ]
      },
      "id": "node/411020268"
    },
    {
      "type": "Feature",
      "properties": {
        "@id": "node/411021469",
        "amenity": "bicycle_rental",
        "brand": "Villo!",
        "capacity": "25",
        "name": "Joseph II - Jozef II",
        "name:fr": "Joseph II",
        "name:nl": "Jozef II",
        "network": "Villo!",
        "operator": "JCDecaux",
        "ref": "43"
      },
      "geometry": {
        "type": "Point",
        "coordinates": [
          4.3742839,
          50.845407
        ]
      },
      "id": "node/411021469"
    },
    {
      "type": "Feature",
      "properties": {
        "@id": "node/454863661",
        "amenity": "bicycle_rental",
        "brand": "Villo!",
        "capacity": "25",
        "name": "Hôtel des Monnaies - Munthotel",
        "name:fr": "Hôtel des Monnaies",
        "name:nl": "Munthotel",
        "network": "Villo!",
        "operator": "JCDecaux",
        "ref": "39"
      },
      "geometry": {
        "type": "Point",
        "coordinates": [
          4.350514,
          50.8341497
        ]
      },
      "id": "node/454863661"
    },
    {
      "type": "Feature",
      "properties": {
        "@id": "node/454864154",
        "amenity": "bicycle_rental",
        "brand": "Villo!",
        "capacity": "25",
        "name": "Porte de Hal - Hallepoort",
        "name:fr": "Porte de Hal",
        "name:nl": "Hallepoort",
        "network": "Villo!",
        "operator": "JCDecaux",
        "ref": "40"
      },
      "geometry": {
        "type": "Point",
        "coordinates": [
          4.343185,
          50.8338425
        ]
      },
      "id": "node/454864154"
    },
    {
      "type": "Feature",
      "properties": {
        "@id": "node/454864880",
        "amenity": "bicycle_rental",
        "brand": "Villo!",
        "capacity": "40",
        "name": "Gare du Midi - Zuidstation",
        "name:fr": "Gare du Midi",
        "name:nl": "Zuidstation",
        "network": "Villo!",
        "operator": "JCDecaux",
        "ref": "53"
      },
      "geometry": {
        "type": "Point",
        "coordinates": [
          4.3358358,
          50.8374769
        ]
      },
      "id": "node/454864880"
    },
    {
      "type": "Feature",
      "properties": {
        "@id": "node/454865665",
        "amenity": "bicycle_rental",
        "brand": "Villo!",
        "capacity": "17",
        "name": "Sablon - Zavel",
        "name:fr": "Sablon",
        "name:nl": "Zavel",
        "network": "Villo!",
        "operator": "JCDecaux",
        "ref": "11"
      },
      "geometry": {
        "type": "Point",
        "coordinates": [
          4.3569683,
          50.8403822
        ]
      },
      "id": "node/454865665"
    },
    {
      "type": "Feature",
      "properties": {
        "@id": "node/454866850",
        "amenity": "bicycle_rental",
        "brand": "Villo!",
        "capacity": "25",
        "name": "Parc - Park",
        "name:fr": "Parc",
        "name:nl": "Park",
        "network": "Villo!",
        "operator": "JCDecaux",
        "ref": "7"
      },
      "geometry": {
        "type": "Point",
        "coordinates": [
          4.3622437,
          50.8463051
        ]
      },
      "id": "node/454866850"
    },
    {
      "type": "Feature",
      "properties": {
        "@id": "node/454866906",
        "amenity": "bicycle_rental",
        "brand": "Villo!",
        "capacity": "23",
        "name": "Congrès - Congres",
        "name:fr": "Congrès",
        "name:nl": "Congres",
        "network": "Villo!",
        "operator": "JCDecaux",
        "ref": "48"
      },
      "geometry": {
        "type": "Point",
        "coordinates": [
          4.3635759,
          50.8492896
        ]
      },
      "id": "node/454866906"
    },
    {
      "type": "Feature",
      "properties": {
        "@id": "node/454868310",
        "amenity": "bicycle_rental",
        "brand": "Villo!",
        "capacity": "25",
        "name": "Musée de la BD - Stripmuseum",
        "name:fr": "Musée de la BD",
        "name:nl": "Stripmuseum",
        "network": "Villo!",
        "operator": "JCDecaux",
        "ref": "31"
      },
      "geometry": {
        "type": "Point",
        "coordinates": [
          4.3607401,
          50.8502482
        ]
      },
      "id": "node/454868310"
    },
    {
      "type": "Feature",
      "properties": {
        "@id": "node/471060123",
        "addr:city": "Bruxelles - Brussel",
        "addr:postcode": "1040",
        "addr:street": "Avenue d'Auderghem - Oudergemlaan",
        "amenity": "bicycle_rental",
        "brand": "Villo!",
        "capacity": "25",
        "name": "Parc Cinquantenaire - Jubelpark",
        "name:fr": "Parc Cinquantenaire",
        "name:nl": "Jubelpark",
        "network": "Villo!",
        "operator": "JCDecaux",
        "ref": "67"
      },
      "geometry": {
        "type": "Point",
        "coordinates": [
          4.3855938,
          50.8397522
        ]
      },
      "id": "node/471060123"
    },
    {
      "type": "Feature",
      "properties": {
        "@id": "node/472683504",
        "amenity": "bicycle_rental",
        "brand": "Villo!",
        "name": "Maelbeek - Maalbeek",
        "name:fr": "Maelbeek",
        "name:nl": "Maalbeek",
        "network": "Villo!",
        "operator": "JCDecaux",
        "ref": "61"
      },
      "geometry": {
        "type": "Point",
        "coordinates": [
          4.3779889,
          50.8438065
        ]
      },
      "id": "node/472683504"
    },
    {
      "type": "Feature",
      "properties": {
        "@id": "node/485996321",
        "amenity": "bicycle_rental",
        "brand": "Villo!",
        "capacity": "25",
        "name": "Archimède - Archimedes",
        "name:fr": "Archimède",
        "name:nl": "Archimedes",
        "network": "Villo!",
        "operator": "JCDecaux",
        "ref": "56"
      },
      "geometry": {
        "type": "Point",
        "coordinates": [
          4.3836566,
          50.8458213
        ]
      },
      "id": "node/485996321"
    },
    {
      "type": "Feature",
      "properties": {
        "@id": "node/490240242",
        "addr:city": "Saint-Josse-ten-Noode - Sint-Joost-ten-Node",
        "addr:postcode": "1210",
        "addr:street": "Rue Willems - Willemsstraat",
        "amenity": "bicycle_rental",
        "brand": "Villo!",
        "capacity": "15",
        "name": "Place St-Josse - St-Joostplein",
        "name:fr": "Place St-Josse",
        "name:nl": "St-Joostplein",
        "network": "Villo!",
        "operator": "JCDecaux",
        "ref": "59"
      },
      "geometry": {
        "type": "Point",
        "coordinates": [
          4.3753282,
          50.849643
        ]
      },
      "id": "node/490240242"
    },
    {
      "type": "Feature",
      "properties": {
        "@id": "node/490240368",
        "amenity": "bicycle_rental",
        "brand": "Villo!",
        "capacity": "25",
        "name": "Gutenberg",
        "network": "Villo!",
        "operator": "JCDecaux",
        "ref": "18"
      },
      "geometry": {
        "type": "Point",
        "coordinates": [
          4.3776044,
          50.8477017
        ]
      },
      "id": "node/490240368"
    },
    {
      "type": "Feature",
      "properties": {
        "@id": "node/492401811",
        "amenity": "bicycle_rental",
        "brand": "Villo!",
        "capacity": "24",
        "name": "Madou",
        "network": "Villo!",
        "operator": "JCDecaux",
        "ref": "57"
      },
      "geometry": {
        "type": "Point",
        "coordinates": [
          4.3695453,
          50.8485248
        ]
      },
      "id": "node/492401811"
    },
    {
      "type": "Feature",
      "properties": {
        "@id": "node/492403672",
        "amenity": "bicycle_rental",
        "brand": "Villo!",
        "capacity": "35",
        "name": "Gare du Nord - Noordstation",
        "name:fr": "Gare du Nord",
        "name:nl": "Noordstation",
        "network": "Villo!",
        "operator": "JCDecaux",
        "ref": "58"
      },
      "geometry": {
        "type": "Point",
        "coordinates": [
          4.359461,
          50.8590009
        ]
      },
      "id": "node/492403672"
    },
    {
      "type": "Feature",
      "properties": {
        "@id": "node/503855856",
        "amenity": "bicycle_rental",
        "brand": "Villo!",
        "capacity": "25",
        "name": "Porte de Ninove - Ninoofsepoort",
        "name:fr": "Porte de Ninove",
        "name:nl": "Ninoofsepoort",
        "network": "Villo!",
        "operator": "JCDecaux",
        "ref": "42"
      },
      "geometry": {
        "type": "Point",
        "coordinates": [
          4.3379507,
          50.8484847
        ]
      },
      "id": "node/503855856"
    },
    {
      "type": "Feature",
      "properties": {
        "@id": "node/506175488",
        "amenity": "bicycle_rental",
        "brand": "Villo!",
        "name": "Place Loix - Loixplein",
        "name:fr": "Place Loix",
        "name:nl": "Loixplein",
        "network": "Villo!",
        "operator": "JCDecaux",
        "ref": "74"
      },
      "geometry": {
        "type": "Point",
        "coordinates": [
          4.353137,
          50.8319068
        ]
      },
      "id": "node/506175488"
    },
    {
      "type": "Feature",
      "properties": {
        "@id": "node/506178208",
        "amenity": "bicycle_rental",
        "brand": "Villo!",
        "capacity": "24",
        "name": "Paul Janson",
        "network": "Villo!",
        "operator": "JCDecaux",
        "ref": "77"
      },
      "geometry": {
        "type": "Point",
        "coordinates": [
          4.3552789,
          50.8274489
        ]
      },
      "id": "node/506178208"
    },
    {
      "type": "Feature",
      "properties": {
        "@id": "node/506179677",
        "amenity": "bicycle_rental",
        "brand": "Villo!",
        "name": "Albertine - Albertina",
        "name:fr": "Albertine",
        "name:nl": "Albertina",
        "network": "Villo!",
        "operator": "JCDecaux",
        "ref": "46"
      },
      "geometry": {
        "type": "Point",
        "coordinates": [
          4.3548961,
          50.843846
        ]
      },
      "id": "node/506179677"
    },
    {
      "type": "Feature",
      "properties": {
        "@id": "node/506191599",
        "addr:city": "Saint-Gilles - Sint-Gillis",
        "addr:postcode": "1060",
        "addr:street": "Chaussée de Waterloo - Waterloose Steenweg",
        "advertising": "billboard",
        "alt_name": "Ducpétiaux",
        "amenity": "bicycle_rental",
        "brand": "Villo!",
        "capacity": "25",
        "name": "Duc Pétiaux",
        "network": "Villo!",
        "note": "Official name on Villo! website is \"Duc Pétiaux\" (two words) despite there is a street named after Édouard Ducpétiaux (one word) nearby – this is not a typo",
        "operator": "JCDecaux",
        "ref": "78"
      },
      "geometry": {
        "type": "Point",
        "coordinates": [
          4.3516861,
          50.8237522
        ]
      },
      "id": "node/506191599"
    },
    {
      "type": "Feature",
      "properties": {
        "@id": "node/506240101",
        "alt_name:de": "Namener Tor",
        "amenity": "bicycle_rental",
        "brand": "Villo!",
        "capacity": "42",
        "name": "Porte de Namur - Naamsepoort",
        "name:fr": "Porte de Namur",
        "name:nl": "Naamsepoort",
        "network": "Villo!",
        "operator": "JCDecaux",
        "ref": "14"
      },
      "geometry": {
        "type": "Point",
        "coordinates": [
          4.3614952,
          50.8386128
        ]
      },
      "id": "node/506240101"
    },
    {
      "type": "Feature",
      "properties": {
        "@id": "node/507039174",
        "amenity": "bicycle_rental",
        "brand": "Villo!",
        "name": "Clovis",
        "network": "Villo!",
        "operator": "JCDecaux",
        "ref": "93"
      },
      "geometry": {
        "type": "Point",
        "coordinates": [
          4.3812195,
          50.8505987
        ]
      },
      "id": "node/507039174"
    },
    {
      "type": "Feature",
      "properties": {
        "@id": "node/535196766",
        "amenity": "bicycle_rental",
        "brand": "Villo!",
        "name": "Rogier",
        "network": "Villo!",
        "operator": "JCDecaux",
        "ref": "24"
      },
      "geometry": {
        "type": "Point",
        "coordinates": [
          4.3589341,
          50.8552151
        ]
      },
      "id": "node/535196766"
    },
    {
      "type": "Feature",
      "properties": {
        "@id": "node/535197673",
        "amenity": "bicycle_rental",
        "brand": "Villo!",
        "capacity": "44",
        "name": "Bourse - Beurs",
        "name:fr": "Bourse",
        "name:nl": "Beurs",
        "network": "Villo!",
        "operator": "JCDecaux",
        "ref": "5"
      },
      "geometry": {
        "type": "Point",
        "coordinates": [
          4.3493413,
          50.8487967
        ]
      },
      "id": "node/535197673"
    },
    {
      "type": "Feature",
      "properties": {
        "@id": "node/566326322",
        "amenity": "bicycle_rental",
        "brand": "Villo!",
        "capacity": "24",
        "name": "Midi Fonsny - Zuid Fonsny",
        "name:fr": "Midi Fonsny",
        "name:nl": "Zuid Fonsny",
        "network": "Villo!",
        "operator": "JCDecaux",
        "ref": "51"
      },
      "geometry": {
        "type": "Point",
        "coordinates": [
          4.3385869,
          50.8359954
        ]
      },
      "id": "node/566326322"
    },
    {
      "type": "Feature",
      "properties": {
        "@id": "node/566326636",
        "amenity": "bicycle_rental",
        "brand": "Villo!",
        "name": "Vétérinaires - Veeartsen",
        "name:fr": "Vétérinaires",
        "name:nl": "Veeartsen",
        "network": "Villo!",
        "operator": "JCDecaux",
        "ref": "64"
      },
      "geometry": {
        "type": "Point",
        "coordinates": [
          4.3310327,
          50.8327684
        ]
      },
      "id": "node/566326636"
    },
    {
      "type": "Feature",
      "properties": {
        "@id": "node/694046802",
        "addr:city": "Bruxelles - Brussel",
        "addr:postcode": "1000",
        "addr:street": "Rue Montagne aux Herbes Potagères - Warmoesberg",
        "amenity": "bicycle_rental",
        "brand": "Villo!",
        "capacity": "25",
        "name": "Mort Subite",
        "network": "Villo!",
        "operator": "JCDecaux",
        "ref": "33"
      },
      "geometry": {
        "type": "Point",
        "coordinates": [
          4.3560861,
          50.8486742
        ]
      },
      "id": "node/694046802"
    },
    {
      "type": "Feature",
      "properties": {
        "@id": "node/708709556",
        "amenity": "bicycle_rental",
        "brand": "Villo!",
        "capacity": "16",
        "name": "Chapelle - Kapel",
        "name:fr": "Chapelle",
        "name:nl": "Kapel",
        "network": "Villo!",
        "operator": "JCDecaux",
        "ref": "10"
      },
      "geometry": {
        "type": "Point",
        "coordinates": [
          4.3516834,
          50.8413855
        ]
      },
      "id": "node/708709556"
    },
    {
      "type": "Feature",
      "properties": {
        "@id": "node/710446870",
        "amenity": "bicycle_rental",
        "brand": "Villo!",
        "capacity": "18",
        "name": "Place Morichar - Moricharplein",
        "name:fr": "Place Morichar",
        "name:nl": "Moricharplein",
        "network": "Villo!",
        "operator": "JCDecaux",
        "ref": "19"
      },
      "geometry": {
        "type": "Point",
        "coordinates": [
          4.3476005,
          50.8280287
        ]
      },
      "id": "node/710446870"
    },
    {
      "type": "Feature",
      "properties": {
        "@id": "node/710448320",
        "amenity": "bicycle_rental",
        "brand": "Villo!",
        "capacity": "25",
        "name": "Place Van Meenen - Van Meenenplein",
        "name:fr": "Place Van Meenen",
        "name:nl": "Van Meenenplein",
        "network": "Villo!",
        "operator": "JCDecaux",
        "ref": "76"
      },
      "geometry": {
        "type": "Point",
        "coordinates": [
          4.345131,
          50.8258401
        ]
      },
      "id": "node/710448320"
    },
    {
      "type": "Feature",
      "properties": {
        "@id": "node/720596415",
        "addr:city": "Saint-Josse-ten-Noode - Sint-Joost-ten-Node",
        "addr:postcode": "1210",
        "addr:street": "Avenue Galilée - Galileelaan",
        "advertising": "yes",
        "amenity": "bicycle_rental",
        "brand": "Villo!",
        "capacity": "25",
        "name": "Botanique - Kruidtuin",
        "name:fr": "Botanique",
        "name:nl": "Kruidtuin",
        "network": "Villo!",
        "operator": "JCDecaux",
        "ref": "55"
      },
      "geometry": {
        "type": "Point",
        "coordinates": [
          4.3661963,
          50.8532437
        ]
      },
      "id": "node/720596415"
    },
    {
      "type": "Feature",
      "properties": {
        "@id": "node/750848480",
        "amenity": "bicycle_rental",
        "brand": "Villo!",
        "capacity": "21",
        "name": "Parvis de St Gilles - St-Gillisvoorplein",
        "name:fr": "Parvis de St Gilles",
        "name:nl": "St-Gillisvoorplein",
        "network": "Villo!",
        "operator": "JCDecaux",
        "ref": "65"
      },
      "geometry": {
        "type": "Point",
        "coordinates": [
          4.3444461,
          50.8300206
        ]
      },
      "id": "node/750848480"
    },
    {
      "type": "Feature",
      "properties": {
        "@id": "node/754012434",
        "addr:city": "Bruxelles - Brussel",
        "addr:postcode": "1000",
        "addr:street": "Rue Antoine Dansaert - Antoine Dansaertstraat",
        "amenity": "bicycle_rental",
        "brand": "Villo!",
        "capacity": "35",
        "name": "Dansaert",
        "network": "Villo!",
        "operator": "JCDecaux",
        "ref": "32"
      },
      "geometry": {
        "type": "Point",
        "coordinates": [
          4.3462549,
          50.8501579
        ]
      },
      "id": "node/754012434"
    },
    {
      "type": "Feature",
      "properties": {
        "@id": "node/776773580",
        "amenity": "bicycle_rental",
        "brand": "Villo!",
        "capacity": "25",
        "name": "Museum",
        "network": "Villo!",
        "official_name": "MUSEUM - CHAUSSEE DE WAVRE (FACE 229 - 233) / WAVERSESTEENWEG (TEGENOVER 229 - 233)",
        "operator": "JCDecaux",
        "ref": "102"
      },
      "geometry": {
        "type": "Point",
        "coordinates": [
          4.3757729,
          50.8357649
        ]
      },
      "id": "node/776773580"
    },
    {
      "type": "Feature",
      "properties": {
        "@id": "node/795724904",
        "amenity": "bicycle_rental",
        "brand": "Villo!",
        "capacity": "30",
        "name": "Gare de Luxembourg - Luxemburgstation",
        "name:fr": "Gare de Luxembourg",
        "name:nl": "Luxemburgstation",
        "network": "Villo!",
        "operator": "JCDecaux",
        "ref": "100"
      },
      "geometry": {
        "type": "Point",
        "coordinates": [
          4.3729738,
          50.8384011
        ]
      },
      "id": "node/795724904"
    },
    {
      "type": "Feature",
      "properties": {
        "@id": "node/797089458",
        "amenity": "bicycle_rental",
        "brand": "Villo!",
        "capacity": "24",
        "name": "Defacqz",
        "network": "Villo!",
        "operator": "JCDecaux",
        "ref": "107"
      },
      "geometry": {
        "type": "Point",
        "coordinates": [
          4.3590397,
          50.8276341
        ]
      },
      "id": "node/797089458"
    },
    {
      "type": "Feature",
      "properties": {
        "@id": "node/814665378",
        "alt_name:ar": "محطة المركزية",
        "amenity": "bicycle_rental",
        "brand": "Villo!",
        "capacity": "30",
        "name": "Gare Centrale - Centraal Station",
        "name:fr": "Gare Centrale",
        "name:nl": "Centraal Station",
        "network": "Villo!",
        "operator": "JCDecaux",
        "ref": "6"
      },
      "geometry": {
        "type": "Point",
        "coordinates": [
          4.356267,
          50.8453491
        ]
      },
      "id": "node/814665378"
    },
    {
      "type": "Feature",
      "properties": {
        "@id": "node/835344858",
        "amenity": "bicycle_rental",
        "brand": "Villo!",
        "capacity": "30",
        "name": "Agora",
        "network": "Villo!",
        "operator": "JCDecaux",
        "ref": "23"
      },
      "geometry": {
        "type": "Point",
        "coordinates": [
          4.3549954,
          50.8463473
        ]
      },
      "id": "node/835344858"
    },
    {
      "type": "Feature",
      "properties": {
        "@id": "node/842467908",
        "amenity": "bicycle_rental",
        "brand": "Villo!",
        "name": "Coteaux - Wijnheuvelen",
        "name:fr": "Coteaux",
        "name:nl": "Wijnheuvelen",
        "network": "Villo!",
        "operator": "JCDecaux",
        "ref": "145"
      },
      "geometry": {
        "type": "Point",
        "coordinates": [
          4.3790106,
          50.8590562
        ]
      },
      "id": "node/842467908"
    },
    {
      "type": "Feature",
      "properties": {
        "@id": "node/842476382",
        "amenity": "bicycle_rental",
        "brand": "Villo!",
        "capacity": "24",
        "name": "Van Ysendijck",
        "network": "Villo!",
        "official_name": "VAN YSENDIJCK - AVENUE VOLTAIRE (FACE 6) / VOLTAIRELAAN (TEGENOVER 6)",
        "operator": "JCDecaux",
        "ref": "158"
      },
      "geometry": {
        "type": "Point",
        "coordinates": [
          4.3795579,
          50.8679051
        ]
      },
      "id": "node/842476382"
    },
    {
      "type": "Feature",
      "properties": {
        "@id": "node/843351446",
        "amenity": "bicycle_rental",
        "brand": "Villo!",
        "name": "Bienfaiteurs - Weldoeners",
        "name:fr": "Bienfaiteurs",
        "name:nl": "Weldoeners",
        "network": "Villo!",
        "operator": "JCDecaux",
        "ref": "142"
      },
      "geometry": {
        "type": "Point",
        "coordinates": [
          4.3867194,
          50.8573606
        ]
      },
      "id": "node/843351446"
    },
    {
      "type": "Feature",
      "properties": {
        "@id": "node/843356611",
        "amenity": "bicycle_rental",
        "brand": "Villo!",
        "name": "Bichon",
        "network": "Villo!",
        "operator": "JCDecaux",
        "ref": "173"
      },
      "geometry": {
        "type": "Point",
        "coordinates": [
          4.3944871,
          50.8646951
        ]
      },
      "id": "node/843356611"
    },
    {
      "type": "Feature",
      "properties": {
        "@id": "node/843356612",
        "amenity": "bicycle_rental",
        "brand": "Villo!",
        "name": "Chazal",
        "network": "Villo!",
        "operator": "JCDecaux",
        "ref": "163"
      },
      "geometry": {
        "type": "Point",
        "coordinates": [
          4.3916023,
          50.8593202
        ]
      },
      "id": "node/843356612"
    },
    {
      "type": "Feature",
      "properties": {
        "@id": "node/850776444",
        "amenity": "bicycle_rental",
        "brand": "Villo!",
        "name": "Willebroeck - Willebroek",
        "name:fr": "Willebroeck",
        "name:nl": "Willebroek",
        "network": "Villo!",
        "operator": "JCDecaux",
        "ref": "49"
      },
      "geometry": {
        "type": "Point",
        "coordinates": [
          4.3511618,
          50.8615122
        ]
      },
      "id": "node/850776444"
    },
    {
      "type": "Feature",
      "properties": {
        "@id": "node/852973893",
        "amenity": "bicycle_rental",
        "brand": "Villo!",
        "capacity": "33",
        "name": "Sainctelette",
        "network": "Villo!",
        "operator": "JCDecaux",
        "ref": "52"
      },
      "geometry": {
        "type": "Point",
        "coordinates": [
          4.3454921,
          50.8592042
        ]
      },
      "id": "node/852973893"
    },
    {
      "type": "Feature",
      "properties": {
        "@id": "node/861714122",
        "amenity": "bicycle_rental",
        "brand": "Villo!",
        "capacity": "30",
        "name": "Gare d'Etterbeek - Station van Etterbeek",
        "name:fr": "Gare d'Etterbeek",
        "name:nl": "Station van Etterbeek",
        "network": "Villo!",
        "operator": "JCDecaux",
        "ref": "122"
      },
      "geometry": {
        "type": "Point",
        "coordinates": [
          4.3892658,
          50.8221974
        ]
      },
      "id": "node/861714122"
    },
    {
      "type": "Feature",
      "properties": {
        "@id": "node/861714129",
        "amenity": "bicycle_rental",
        "brand": "Villo!",
        "capacity": "25",
        "name": "Germoir - Mouterij",
        "name:fr": "Germoir",
        "name:nl": "Mouterij",
        "network": "Villo!",
        "operator": "JCDecaux",
        "ref": "106"
      },
      "geometry": {
        "type": "Point",
        "coordinates": [
          4.3786826,
          50.8301047
        ]
      },
      "id": "node/861714129"
    },
    {
      "type": "Feature",
      "properties": {
        "@id": "node/861714137",
        "addr:city": "Ixelles - Elsene",
        "addr:postcode": "1050",
        "addr:street": "Place Raymond Blyckaerts - Raymond Blyckaertsplein",
        "amenity": "bicycle_rental",
        "brand": "Villo!",
        "capacity": "25",
        "name": "Blyckaerts",
        "network": "Villo!",
        "operator": "JCDecaux",
        "ref": "120"
      },
      "geometry": {
        "type": "Point",
        "coordinates": [
          4.3747352,
          50.8329499
        ]
      },
      "id": "node/861714137"
    },
    {
      "type": "Feature",
      "properties": {
        "@id": "node/861715882",
        "amenity": "bicycle_rental",
        "brand": "Villo!",
        "capacity": "25",
        "name": "ULB Plaine",
        "network": "Villo!",
        "note": "Official name is only in French - no Dutch translation",
        "operator": "JCDecaux",
        "ref": "116"
      },
      "geometry": {
        "type": "Point",
        "coordinates": [
          4.3956895,
          50.8182545
        ]
      },
      "id": "node/861715882"
    },
    {
      "type": "Feature",
      "properties": {
        "@id": "node/861732420",
        "amenity": "bicycle_rental",
        "brand": "Villo!",
        "name": "Simonis",
        "network": "Villo!",
        "operator": "JCDecaux",
        "ref": "83"
      },
      "geometry": {
        "type": "Point",
        "coordinates": [
          4.3312738,
          50.8628698
        ]
      },
      "id": "node/861732420"
    },
    {
      "type": "Feature",
      "properties": {
        "@id": "node/861735044",
        "amenity": "bicycle_rental",
        "brand": "Villo!",
        "name": "Château - Kasteel",
        "name:fr": "Château",
        "name:nl": "Kasteel",
        "network": "Villo!",
        "operator": "JCDecaux",
        "ref": "133"
      },
      "geometry": {
        "type": "Point",
        "coordinates": [
          4.3092469,
          50.8667089
        ]
      },
      "id": "node/861735044"
    },
    {
      "type": "Feature",
      "properties": {
        "@id": "node/867598169",
        "amenity": "bicycle_rental",
        "brand": "Villo!",
        "capacity": "17",
        "name": "Broustin",
        "network": "Villo!",
        "operator": "JCDecaux",
        "ref": "90"
      },
      "geometry": {
        "type": "Point",
        "coordinates": [
          4.3267326,
          50.8674134
        ]
      },
      "id": "node/867598169"
    },
    {
      "type": "Feature",
      "properties": {
        "@id": "node/867598393",
        "amenity": "bicycle_rental",
        "brand": "Villo!",
        "capacity": "25",
        "name": "Belgica",
        "network": "Villo!",
        "operator": "JCDecaux",
        "ref": "91"
      },
      "geometry": {
        "type": "Point",
        "coordinates": [
          4.3352396,
          50.8677585
        ]
      },
      "id": "node/867598393"
    },
    {
      "type": "Feature",
      "properties": {
        "@id": "node/870127751",
        "amenity": "bicycle_rental",
        "brand": "Villo!",
        "capacity": "21",
        "name": "Porte de Flandre - Vlaamsepoort",
        "name:fr": "Porte de Flandre",
        "name:nl": "Vlaamsepoort",
        "network": "Villo!",
        "operator": "JCDecaux",
        "ref": "3"
      },
      "geometry": {
        "type": "Point",
        "coordinates": [
          4.3417793,
          50.8532446
        ]
      },
      "id": "node/870127751"
    },
    {
      "type": "Feature",
      "properties": {
        "@id": "node/870486721",
        "amenity": "bicycle_rental",
        "brand": "Villo!",
        "name": "Sainte-Marie - Sinte-Maria",
        "name:fr": "Sainte-Marie",
        "name:nl": "Sinte-Maria",
        "network": "Villo!",
        "operator": "JCDecaux",
        "ref": "144"
      },
      "geometry": {
        "type": "Point",
        "coordinates": [
          4.3682079,
          50.8578201
        ]
      },
      "id": "node/870486721"
    },
    {
      "type": "Feature",
      "properties": {
        "@id": "node/870486726",
        "amenity": "bicycle_rental",
        "brand": "Villo!",
        "name": "St-Lazare - St Lazarus",
        "name:fr": "St-Lazare",
        "name:nl": "St Lazarus",
        "network": "Villo!",
        "operator": "JCDecaux",
        "ref": "60"
      },
      "geometry": {
        "type": "Point",
        "coordinates": [
          4.3619225,
          50.8567334
        ]
      },
      "id": "node/870486726"
    },
    {
      "type": "Feature",
      "properties": {
        "@id": "node/875533005",
        "amenity": "bicycle_rental",
        "brand": "Villo!",
        "capacity": "25",
        "name": "Boileau",
        "network": "Villo!",
        "operator": "JCDecaux",
        "ref": "182"
      },
      "geometry": {
        "type": "Point",
        "coordinates": [
          4.4048075,
          50.8317248
        ]
      },
      "id": "node/875533005"
    },
    {
      "type": "Feature",
      "properties": {
        "@id": "node/875533022",
        "addr:city": "Etterbeek",
        "addr:postcode": "1040",
        "addr:street": "Boulevard Louis Schmidt - Louis Schmidtlaan",
        "amenity": "bicycle_rental",
        "brand": "Villo!",
        "capacity": "25",
        "name": "Arsenal - Arsenaal",
        "name:fr": "Arsenal",
        "name:nl": "Arsenaal",
        "network": "Villo!",
        "operator": "JCDecaux",
        "ref": "187"
      },
      "geometry": {
        "type": "Point",
        "coordinates": [
          4.3970233,
          50.8264946
        ]
      },
      "id": "node/875533022"
    },
    {
      "type": "Feature",
      "properties": {
        "@id": "node/875533042",
        "amenity": "bicycle_rental",
        "brand": "Villo!",
        "capacity": "25",
        "name": "RTL",
        "network": "Villo!",
        "operator": "JCDecaux",
        "ref": "143"
      },
      "geometry": {
        "type": "Point",
        "coordinates": [
          4.4075841,
          50.8572116
        ]
      },
      "id": "node/875533042"
    },
    {
      "type": "Feature",
      "properties": {
        "@id": "node/875533066",
        "amenity": "bicycle_rental",
        "brand": "Villo!",
        "capacity": "25",
        "name": "Colonel Bourg - Kolonel Bourg",
        "name:fr": "Colonel Bourg",
        "name:nl": "Kolonel Bourg",
        "network": "Villo!",
        "operator": "JCDecaux",
        "ref": "176"
      },
      "geometry": {
        "type": "Point",
        "coordinates": [
          4.4086593,
          50.8523302
        ]
      },
      "id": "node/875533066"
    },
    {
      "type": "Feature",
      "properties": {
        "@id": "node/877226145",
        "amenity": "bicycle_rental",
        "brand": "Villo!",
        "capacity": "25",
        "name": "Ribaucourt",
        "network": "Villo!",
        "operator": "JCDecaux",
        "ref": "50"
      },
      "geometry": {
        "type": "Point",
        "coordinates": [
          4.3391558,
          50.8608589
        ]
      },
      "id": "node/877226145"
    },
    {
      "type": "Feature",
      "properties": {
        "@id": "node/877226146",
        "amenity": "bicycle_rental",
        "brand": "Villo!",
        "capacity": "22",
        "name": "Jubilé",
        "network": "Villo!",
        "note": "Official name is only in French - no Dutch translation",
        "operator": "JCDecaux",
        "ref": "99"
      },
      "geometry": {
        "type": "Point",
        "coordinates": [
          4.3384702,
          50.8650574
        ]
      },
      "id": "node/877226146"
    },
    {
      "type": "Feature",
      "properties": {
        "@id": "node/877229668",
        "amenity": "bicycle_rental",
        "brand": "Villo!",
        "capacity": "20",
        "name": "Jardin aux Fleurs - Bloemenhof",
        "name:fr": "Jardin aux Fleurs",
        "name:nl": "Bloemenhof",
        "network": "Villo!",
        "official_name": "JARDIN AUX FLEURS/BLOEMENHOF - PLACE DU JARDIN AUX FLEURS/BLOEMENHOFPLEIN - RUE DES 6 JETONS/ZES PENNIGENSTRAAT 71",
        "operator": "JCDecaux",
        "ref": "4"
      },
      "geometry": {
        "type": "Point",
        "coordinates": [
          4.3435407,
          50.8477966
        ]
      },
      "id": "node/877229668"
    },
    {
      "type": "Feature",
      "properties": {
        "@id": "node/911932510",
        "amenity": "bicycle_rental",
        "brand": "Villo!",
        "capacity": "25",
        "name": "Jules Lebrun",
        "network": "Villo!",
        "operator": "JCDecaux",
        "ref": "149"
      },
      "geometry": {
        "type": "Point",
        "coordinates": [
          4.4033151,
          50.8562042
        ]
      },
      "id": "node/911932510"
    },
    {
      "type": "Feature",
      "properties": {
        "@id": "node/911932541",
        "amenity": "bicycle_rental",
        "brand": "Villo!",
        "capacity": "25",
        "name": "Meiser",
        "network": "Villo!",
        "operator": "JCDecaux",
        "ref": "150"
      },
      "geometry": {
        "type": "Point",
        "coordinates": [
          4.3984408,
          50.8546414
        ]
      },
      "id": "node/911932541"
    },
    {
      "type": "Feature",
      "properties": {
        "@id": "node/1127709007",
        "amenity": "bicycle_rental",
        "brand": "Villo!",
        "capacity": "24",
        "name": "Jamblinne de Meux",
        "network": "Villo!",
        "operator": "JCDecaux",
        "ref": "156"
      },
      "geometry": {
        "type": "Point",
        "coordinates": [
          4.3932276,
          50.8471759
        ]
      },
      "id": "node/1127709007"
    },
    {
      "type": "Feature",
      "properties": {
        "@id": "node/1155251035",
        "addr:city": "Schaerbeek - Schaarbeek",
        "addr:postcode": "1030",
        "addr:street": "Square Eugène Plasky - Eugène Plaskysquare",
        "amenity": "bicycle_rental",
        "brand": "Villo!",
        "capacity": "25",
        "name": "Plasky",
        "network": "Villo!",
        "operator": "JCDecaux",
        "ref": "154"
      },
      "geometry": {
        "type": "Point",
        "coordinates": [
          4.3963797,
          50.8512175
        ]
      },
      "id": "node/1155251035"
    },
    {
      "type": "Feature",
      "properties": {
        "@id": "node/1155252833",
        "amenity": "bicycle_rental",
        "brand": "Villo!",
        "capacity": "25",
        "name": "Chasseurs Ardennais - Ardense Jagers",
        "name:fr": "Chasseurs Ardennais",
        "name:nl": "Ardense Jagers",
        "network": "Villo!",
        "operator": "JCDecaux",
        "ref": "177"
      },
      "geometry": {
        "type": "Point",
        "coordinates": [
          4.3892781,
          50.8493357
        ]
      },
      "id": "node/1155252833"
    },
    {
      "type": "Feature",
      "properties": {
        "@id": "node/1155270044",
        "addr:city": "Schaerbeek - Schaarbeek",
        "addr:postcode": "1030",
        "addr:street": "Place Dailly - Daillyplein",
        "amenity": "bicycle_rental",
        "brand": "Villo!",
        "capacity": "25",
        "name": "Place Dailly - Daillyplein",
        "name:fr": "Place Dailly",
        "name:nl": "Daillyplein",
        "network": "Villo!",
        "operator": "JCDecaux",
        "ref": "152"
      },
      "geometry": {
        "type": "Point",
        "coordinates": [
          4.3874799,
          50.852416
        ]
      },
      "id": "node/1155270044"
    },
    {
      "type": "Feature",
      "properties": {
        "@id": "node/1196935393",
        "amenity": "bicycle_rental",
        "brand": "Villo!",
        "capacity": "19",
        "name": "Jeu de Balle - Vossenplein",
        "name:fr": "Jeu de Balle",
        "name:nl": "Vossenplein",
        "network": "Villo!",
        "operator": "JCDecaux",
        "ref": "38"
      },
      "geometry": {
        "type": "Point",
        "coordinates": [
          4.347322,
          50.8378132
        ]
      },
      "id": "node/1196935393"
    },
    {
      "type": "Feature",
      "properties": {
        "@id": "node/1214500793",
        "addr:city": "Schaerbeek - Schaarbeek",
        "addr:postcode": "1030",
        "addr:street": "Chaussée de Haecht - Haachtsesteenweg",
        "amenity": "bicycle_rental",
        "brand": "Villo!",
        "capacity": "25",
        "name": "Émile Max Lycée - Lyceum Émile Max",
        "name:fr": "Émile Max Lycée",
        "name:nl": "Lyceum Émile Max",
        "network": "Villo!",
        "operator": "JCDecaux",
        "ref": "147"
      },
      "geometry": {
        "type": "Point",
        "coordinates": [
          4.3722898,
          50.8619228
        ]
      },
      "id": "node/1214500793"
    },
    {
      "type": "Feature",
      "properties": {
        "@id": "node/1231570110",
        "amenity": "bicycle_rental",
        "brand": "Villo!",
        "name": "Flagey",
        "network": "Villo!",
        "operator": "JCDecaux",
        "ref": "108"
      },
      "geometry": {
        "type": "Point",
        "coordinates": [
          4.3717525,
          50.8279265
        ]
      },
      "id": "node/1231570110"
    },
    {
      "type": "Feature",
      "properties": {
        "@id": "node/1231570113",
        "amenity": "bicycle_rental",
        "brand": "Villo!",
        "capacity": "20",
        "name": "de Hennin",
        "network": "Villo!",
        "operator": "JCDecaux",
        "ref": "105"
      },
      "geometry": {
        "type": "Point",
        "coordinates": [
          4.369521,
          50.8300942
        ]
      },
      "id": "node/1231570113"
    },
    {
      "type": "Feature",
      "properties": {
        "@id": "node/1231570114",
        "amenity": "bicycle_rental",
        "brand": "Villo!",
        "name": "Étangs - Vijvers",
        "name:fr": "Étangs",
        "name:nl": "Vijvers",
        "network": "Villo!",
        "operator": "JCDecaux",
        "ref": "121"
      },
      "geometry": {
        "type": "Point",
        "coordinates": [
          4.3738185,
          50.8239802
        ]
      },
      "id": "node/1231570114"
    },
    {
      "type": "Feature",
      "properties": {
        "@id": "node/1258466474",
        "amenity": "bicycle_rental",
        "brand": "Villo!",
        "capacity": "19",
        "name": "Gray",
        "network": "Villo!",
        "operator": "JCDecaux",
        "ref": "127"
      },
      "geometry": {
        "type": "Point",
        "coordinates": [
          4.3778114,
          50.8321392
        ]
      },
      "id": "node/1258466474"
    },
    {
      "type": "Feature",
      "properties": {
        "@id": "node/1259472456",
        "amenity": "bicycle_rental",
        "brand": "Villo!",
        "capacity": "25",
        "name": "Demolder",
        "network": "Villo!",
        "official_name": "DEMOLDER - AVENUE EUGENE DEMOLDER / EUGENE DEMOLDERLAAN 68",
        "operator": "JCDecaux",
        "ref": "161"
      },
      "geometry": {
        "type": "Point",
        "coordinates": [
          4.3799066,
          50.8725799
        ]
      },
      "id": "node/1259472456"
    },
    {
      "type": "Feature",
      "properties": {
        "@id": "node/1260763985",
        "amenity": "bicycle_rental",
        "brand": "Villo!",
        "capacity": "19",
        "name": "Bascule",
        "network": "Villo!",
        "operator": "JCDecaux",
        "ref": "123"
      },
      "geometry": {
        "type": "Point",
        "coordinates": [
          4.3665824,
          50.8175426
        ]
      },
      "id": "node/1260763985"
    },
    {
      "type": "Feature",
      "properties": {
        "@id": "node/1262551857",
        "amenity": "bicycle_rental",
        "brand": "Villo!",
        "capacity": "25",
        "name": "Parc Lacroix - Lacroix park",
        "name:fr": "Parc Lacroix",
        "name:nl": "Lacroix park",
        "network": "Villo!",
        "operator": "JCDecaux",
        "ref": "135"
      },
      "geometry": {
        "type": "Point",
        "coordinates": [
          4.376742,
          50.8727103
        ]
      },
      "id": "node/1262551857"
    },
    {
      "type": "Feature",
      "properties": {
        "@id": "node/1268700398",
        "amenity": "bicycle_rental",
        "brand": "Villo!",
        "capacity": "25",
        "name": "Étangs Noirs - Zwarte Vijvers",
        "name:fr": "Étangs Noirs",
        "name:nl": "Zwarte Vijvers",
        "network": "Villo!",
        "official_name": "ETANGS NOIRS /ZWARTE VIJVERS - CHEE DE GAND/STEENWEG OP GENT",
        "operator": "JCDecaux",
        "ref": "85"
      },
      "geometry": {
        "type": "Point",
        "coordinates": [
          4.3324168,
          50.8571889
        ]
      },
      "id": "node/1268700398"
    },
    {
      "type": "Feature",
      "properties": {
        "@id": "node/1279058364",
        "amenity": "bicycle_rental",
        "brand": "Villo!",
        "capacity": "20",
        "name": "Jourdan",
        "network": "Villo!",
        "operator": "JCDecaux",
        "ref": "180"
      },
      "geometry": {
        "type": "Point",
        "coordinates": [
          4.3815136,
          50.8377867
        ]
      },
      "id": "node/1279058364"
    },
    {
      "type": "Feature",
      "properties": {
        "@id": "node/1286101197",
        "amenity": "bicycle_rental",
        "brand": "Villo!",
        "capacity": "25",
        "name": "Pont Bockstael - Brug Bockstael",
        "name:fr": "Pont Bockstael",
        "name:nl": "Brug Bockstael",
        "network": "Villo!",
        "official_name": "PONT BOCKSTAEL/BRUG BOCKSTAEL - BLD EMILE BOCKSTAEL/EMILE BOCKSTAELLAAN 5",
        "operator": "JCDecaux",
        "ref": "81"
      },
      "geometry": {
        "type": "Point",
        "coordinates": [
          4.3433656,
          50.8704285
        ]
      },
      "id": "node/1286101197"
    },
    {
      "type": "Feature",
      "properties": {
        "@id": "node/1394706869",
        "amenity": "bicycle_rental",
        "brand": "Villo!",
        "name": "Père de Deken - Pater de Deken",
        "name:fr": "Père de Deken",
        "name:nl": "Pater de Deken",
        "network": "Villo!",
        "operator": "JCDecaux",
        "ref": "185"
      },
      "geometry": {
        "type": "Point",
        "coordinates": [
          4.4015484,
          50.8358411
        ]
      },
      "id": "node/1394706869"
    },
    {
      "type": "Feature",
      "properties": {
        "@id": "node/1394707984",
        "amenity": "bicycle_rental",
        "brand": "Villo!",
        "capacity": "30",
        "name": "Celtes - Kelten",
        "name:fr": "Celtes",
        "name:nl": "Kelten",
        "network": "Villo!",
        "official_name": "CELTES/KELTEN - AVENUE DE TERVUEREN (FACE AU 17) / TERVURENLAAN (TEGENOVER 17)",
        "operator": "JCDecaux",
        "ref": "179"
      },
      "geometry": {
        "type": "Point",
        "coordinates": [
          4.3978826,
          50.8392468
        ]
      },
      "id": "node/1394707984"
    },
    {
      "type": "Feature",
      "properties": {
        "@id": "node/1483481247",
        "amenity": "bicycle_rental",
        "brand": "Villo!",
        "capacity": "25",
        "name": "Léopold III - Leopold III",
        "name:fr": "Léopold III",
        "name:nl": "Leopold III",
        "network": "Villo!",
        "operator": "JCDecaux",
        "ref": "146"
      },
      "geometry": {
        "type": "Point",
        "coordinates": [
          4.4009561,
          50.8592193
        ]
      },
      "id": "node/1483481247"
    },
    {
      "type": "Feature",
      "properties": {
        "@id": "node/1494231097",
        "addr:city": "Schaerbeek - Schaarbeek",
        "addr:postcode": "1030",
        "addr:street": "Chaussée de Louvain - Leuvensesteenweg",
        "amenity": "bicycle_rental",
        "brand": "Villo!",
        "capacity": "24",
        "name": "Louvain 488-494 - Leuven 488-494",
        "name:fr": "Louvain 488-494",
        "name:nl": "Leuven 488-494",
        "network": "Villo!",
        "operator": "JCDecaux",
        "ref": "151"
      },
      "geometry": {
        "type": "Point",
        "coordinates": [
          4.3924902,
          50.8534934
        ]
      },
      "id": "node/1494231097"
    },
    {
      "type": "Feature",
      "properties": {
        "@id": "node/1588195000",
        "amenity": "bicycle_rental",
        "brand": "Villo!",
        "capacity": "25",
        "name": "Eloy",
        "network": "Villo!",
        "operator": "JCDecaux",
        "ref": "2"
      },
      "geometry": {
        "type": "Point",
        "coordinates": [
          4.3259504,
          50.8361959
        ]
      },
      "id": "node/1588195000"
    },
    {
      "type": "Feature",
      "properties": {
        "@id": "node/1631412984",
        "addr:city": "Bruxelles - Brussel",
        "addr:postcode": "1050",
        "addr:street": "Avenue Louise - Louizalaan",
        "amenity": "bicycle_rental",
        "brand": "Villo!",
        "name": "Lesbroussart",
        "network": "Villo!",
        "operator": "JCDecaux",
        "ref": "69"
      },
      "geometry": {
        "type": "Point",
        "coordinates": [
          4.363843,
          50.8275355
        ]
      },
      "id": "node/1631412984"
    },
    {
      "type": "Feature",
      "properties": {
        "@id": "node/1632534515",
        "amenity": "bicycle_rental",
        "brand": "Villo!",
        "name": "Legrand",
        "network": "Villo!",
        "operator": "JCDecaux",
        "ref": "71"
      },
      "geometry": {
        "type": "Point",
        "coordinates": [
          4.3720363,
          50.8150702
        ]
      },
      "id": "node/1632534515"
    },
    {
      "type": "Feature",
      "properties": {
        "@id": "node/1632534522",
        "amenity": "bicycle_rental",
        "brand": "Villo!",
        "capacity": "24",
        "name": "ULB Solbosch",
        "network": "Villo!",
        "operator": "JCDecaux",
        "ref": "72"
      },
      "geometry": {
        "type": "Point",
        "coordinates": [
          4.379209,
          50.8124399
        ]
      },
      "id": "node/1632534522"
    },
    {
      "type": "Feature",
      "properties": {
        "@id": "node/1632534524",
        "amenity": "bicycle_rental",
        "brand": "Villo!",
        "name": "Ceres",
        "network": "Villo!",
        "operator": "JCDecaux",
        "ref": "80"
      },
      "geometry": {
        "type": "Point",
        "coordinates": [
          4.3767699,
          50.8147918
        ]
      },
      "id": "node/1632534524"
    },
    {
      "type": "Feature",
      "properties": {
        "@id": "node/1639224188",
        "amenity": "bicycle_rental",
        "brand": "Villo!",
        "capacity": "25",
        "name": "Aurore - Dageraad",
        "name:fr": "Aurore",
        "name:nl": "Dageraad",
        "network": "Villo!",
        "official_name": "AURORE/DAGERAAD - AVENUE LOUISE/LOUIZALAAN 440",
        "operator": "JCDecaux",
        "ref": "70"
      },
      "geometry": {
        "type": "Point",
        "coordinates": [
          4.3715246,
          50.8181313
        ]
      },
      "id": "node/1639224188"
    },
    {
      "type": "Feature",
      "properties": {
        "@id": "node/1639224227",
        "amenity": "bicycle_rental",
        "brand": "Villo!",
        "name": "Vleurgat",
        "network": "Villo!",
        "operator": "JCDecaux",
        "ref": "73"
      },
      "geometry": {
        "type": "Point",
        "coordinates": [
          4.3677153,
          50.8239631
        ]
      },
      "id": "node/1639224227"
    },
    {
      "type": "Feature",
      "properties": {
        "@id": "node/1639874968",
        "amenity": "bicycle_rental",
        "brand": "Villo!",
        "name": "Stéphanie - Stefania",
        "name:fr": "Stéphanie",
        "name:nl": "Stefania",
        "network": "Villo!",
        "operator": "JCDecaux",
        "ref": "45"
      },
      "geometry": {
        "type": "Point",
        "coordinates": [
          4.3574478,
          50.8331201
        ]
      },
      "id": "node/1639874968"
    },
    {
      "type": "Feature",
      "properties": {
        "@id": "node/1732925040",
        "amenity": "bicycle_rental",
        "brand": "Villo!",
        "capacity": "24",
        "name": "Artan",
        "network": "Villo!",
        "official_name": "ARTAN - RUE CLAYS",
        "operator": "JCDecaux",
        "ref": "191"
      },
      "geometry": {
        "type": "Point",
        "coordinates": [
          4.3836445,
          50.8539785
        ]
      },
      "id": "node/1732925040"
    },
    {
      "type": "Feature",
      "properties": {
        "@id": "node/1779098873",
        "amenity": "bicycle_rental",
        "brand": "Villo!",
        "capacity": "25",
        "name": "Cicéron",
        "network": "Villo!",
        "note": "Official name is only in French - no Dutch translation",
        "operator": "JCDecaux",
        "ref": "269"
      },
      "geometry": {
        "type": "Point",
        "coordinates": [
          4.4214702,
          50.8609367
        ]
      },
      "id": "node/1779098873"
    },
    {
      "type": "Feature",
      "properties": {
        "@id": "node/1779098874",
        "amenity": "bicycle_rental",
        "brand": "Villo!",
        "capacity": "20",
        "name": "Conscience",
        "network": "Villo!",
        "operator": "JCDecaux",
        "ref": "261"
      },
      "geometry": {
        "type": "Point",
        "coordinates": [
          4.3996137,
          50.8688538
        ]
      },
      "id": "node/1779098874"
    },
    {
      "type": "Feature",
      "properties": {
        "@id": "node/1779098876",
        "amenity": "bicycle_rental",
        "brand": "Villo!",
        "capacity": "20",
        "name": "Maison communale d'Evere - Evere gemeentehuis",
        "name:fr": "Maison communale d'Evere",
        "name:nl": "Evere gemeentehuis",
        "network": "Villo!",
        "operator": "JCDecaux",
        "ref": "263"
      },
      "geometry": {
        "type": "Point",
        "coordinates": [
          4.4031743,
          50.8718991
        ]
      },
      "id": "node/1779098876"
    },
    {
      "type": "Feature",
      "properties": {
        "@id": "node/1779098877",
        "amenity": "bicycle_rental",
        "brand": "Villo!",
        "capacity": "25",
        "name": "Genève - Geneve",
        "name:fr": "Genève",
        "name:nl": "Geneve",
        "network": "Villo!",
        "official_name": "GENEVE - RUE DE GENEVE / GENEVESTRAT 12",
        "operator": "JCDecaux",
        "ref": "267"
      },
      "geometry": {
        "type": "Point",
        "coordinates": [
          4.4032109,
          50.8628301
        ]
      },
      "id": "node/1779098877"
    },
    {
      "type": "Feature",
      "properties": {
        "@id": "node/1779098878",
        "amenity": "bicycle_rental",
        "brand": "Villo!",
        "capacity": "20",
        "name": "Dunant",
        "network": "Villo!",
        "official_name": "DUNANT - AV HENRI DUNANT / HENRI DUNANTLAAN",
        "operator": "JCDecaux",
        "ref": "268"
      },
      "geometry": {
        "type": "Point",
        "coordinates": [
          4.4107444,
          50.8629111
        ]
      },
      "id": "node/1779098878"
    },
    {
      "type": "Feature",
      "properties": {
        "@id": "node/1779098881",
        "amenity": "bicycle_rental",
        "brand": "Villo!",
        "construction": "yes",
        "name": "De Paduwa",
        "network": "Villo!",
        "operator": "JCDecaux",
        "ref": "270"
      },
      "geometry": {
        "type": "Point",
        "coordinates": [
          4.4141622,
          50.8591485
        ]
      },
      "id": "node/1779098881"
    },
    {
      "type": "Feature",
      "properties": {
        "@id": "node/1779098883",
        "amenity": "bicycle_rental",
        "brand": "Villo!",
        "capacity": "25",
        "name": "Triton",
        "network": "Villo!",
        "operator": "JCDecaux",
        "ref": "260"
      },
      "geometry": {
        "type": "Point",
        "coordinates": [
          4.4069348,
          50.8671598
        ]
      },
      "id": "node/1779098883"
    },
    {
      "type": "Feature",
      "properties": {
        "@id": "node/1783427793",
        "amenity": "bicycle_rental",
        "brand": "Villo!",
        "capacity": "20",
        "name": "Place de la Paix - Vredeplein",
        "name:fr": "Place de la Paix",
        "name:nl": "Vredeplein",
        "network": "Villo!",
        "official_name": "PLACE DE LA PAIX / VREDEPLAIN - PLACE DE LA PAIX FACE 24 / VREDEPLEIN VOOR 24",
        "operator": "JCDecaux",
        "ref": "262"
      },
      "geometry": {
        "type": "Point",
        "coordinates": [
          4.4008356,
          50.8769703
        ]
      },
      "id": "node/1783427793"
    },
    {
      "type": "Feature",
      "properties": {
        "@id": "node/1783427811",
        "addr:city": "Evere",
        "addr:postcode": "1140",
        "addr:street": "Chaussée de Haecht - Haachtsesteenweg",
        "amenity": "bicycle_rental",
        "brand": "Villo!",
        "capacity": "21",
        "name": "Gare Bordet - Bordet Station",
        "name:fr": "Gare Bordet",
        "name:nl": "Bordet Station",
        "network": "Villo!",
        "operator": "JCDecaux",
        "ref": "266"
      },
      "geometry": {
        "type": "Point",
        "coordinates": [
          4.4090246,
          50.8774274
        ]
      },
      "id": "node/1783427811"
    },
    {
      "type": "Feature",
      "properties": {
        "@id": "node/1824763106",
        "amenity": "bicycle_rental",
        "brand": "Villo!",
        "capacity": "25",
        "name": "Louis Titz",
        "network": "Villo!",
        "operator": "JCDecaux",
        "ref": "181"
      },
      "geometry": {
        "type": "Point",
        "coordinates": [
          4.3944445,
          50.8357321
        ]
      },
      "id": "node/1824763106"
    },
    {
      "type": "Feature",
      "properties": {
        "@id": "node/1824770592",
        "addr:city": "Etterbeek",
        "addr:postcode": "1040",
        "addr:street": "Place Van Meyel - Van Meyelplein",
        "amenity": "bicycle_rental",
        "brand": "Villo!",
        "capacity": "17",
        "name": "Place Van Meyel - Van Meyelplein",
        "name:fr": "Place Van Meyel",
        "name:nl": "Van Meyelplein",
        "network": "Villo!",
        "operator": "JCDecaux",
        "ref": "189"
      },
      "geometry": {
        "type": "Point",
        "coordinates": [
          4.3890966,
          50.8369022
        ]
      },
      "id": "node/1824770592"
    },
    {
      "type": "Feature",
      "properties": {
        "@id": "node/1824789396",
        "amenity": "bicycle_rental",
        "brand": "Villo!",
        "capacity": "25",
        "name": "La Chasse - Jacht",
        "name:fr": "La Chasse",
        "name:nl": "Jacht",
        "network": "Villo!",
        "official_name": "LA CHASSE/JACHT - AVENUE DES CASERNES/ KAZERNENLAAN 4 - 6",
        "operator": "JCDecaux",
        "ref": "183"
      },
      "geometry": {
        "type": "Point",
        "coordinates": [
          4.3904758,
          50.8299198
        ]
      },
      "id": "node/1824789396"
    },
    {
      "type": "Feature",
      "properties": {
        "@id": "node/1852171450",
        "amenity": "bicycle_rental",
        "brand": "Villo!",
        "name": "Georges Brugmann",
        "network": "Villo!",
        "operator": "JCDecaux",
        "ref": "125"
      },
      "geometry": {
        "type": "Point",
        "coordinates": [
          4.3540621,
          50.817338
        ]
      },
      "id": "node/1852171450"
    },
    {
      "type": "Feature",
      "properties": {
        "@id": "node/1852171455",
        "amenity": "bicycle_rental",
        "brand": "Villo!",
        "capacity": "20",
        "name": "Houzeau",
        "network": "Villo!",
        "operator": "JCDecaux",
        "ref": "288"
      },
      "geometry": {
        "type": "Point",
        "coordinates": [
          4.358874,
          50.8034803
        ]
      },
      "id": "node/1852171455"
    },
    {
      "type": "Feature",
      "properties": {
        "@id": "node/1852171463",
        "amenity": "bicycle_rental",
        "brand": "Villo!",
        "capacity": "25",
        "name": "Statuaires - Beeldhouwwerk",
        "name:fr": "Statuaires",
        "name:nl": "Beeldhouwwerk",
        "network": "Villo!",
        "official_name": "STATUAIRES/BEELDHOUWWERK - AVENUE DE FRE/DE FRELAAN",
        "operator": "JCDecaux",
        "ref": "241"
      },
      "geometry": {
        "type": "Point",
        "coordinates": [
          4.3495248,
          50.8039906
        ]
      },
      "id": "node/1852171463"
    },
    {
      "type": "Feature",
      "properties": {
        "@id": "node/1857558027",
        "amenity": "bicycle_rental",
        "brand": "Villo!",
        "capacity": "25",
        "name": "Hamoir",
        "network": "Villo!",
        "operator": "JCDecaux",
        "ref": "245"
      },
      "geometry": {
        "type": "Point",
        "coordinates": [
          4.3754906,
          50.7991234
        ]
      },
      "id": "node/1857558027"
    },
    {
      "type": "Feature",
      "properties": {
        "@id": "node/1877692153",
        "amenity": "bicycle_rental",
        "brand": "Villo!",
        "name": "Paquot",
        "network": "Villo!",
        "official_name": "PAQUOT - RUE JEAN PAQUOT (44 A 48) /JEAN PAQUOTSTRAAT (44 T.E.M 48)",
        "operator": "JCDecaux",
        "ref": "119"
      },
      "geometry": {
        "type": "Point",
        "coordinates": [
          4.3794815,
          50.825571
        ]
      },
      "id": "node/1877692153"
    },
    {
      "type": "Feature",
      "properties": {
        "@id": "node/1880793260",
        "addr:city": "Auderghem - Oudergem",
        "addr:postcode": "1160",
        "addr:street": "Boulevard du Souverain - Vorstlaan",
        "amenity": "bicycle_rental",
        "brand": "Villo!",
        "capacity": "23",
        "name": "Ten Reuken",
        "network": "Villo!",
        "operator": "JCDecaux",
        "ref": "297"
      },
      "geometry": {
        "type": "Point",
        "coordinates": [
          4.4265329,
          50.805018
        ]
      },
      "id": "node/1880793260"
    },
    {
      "type": "Feature",
      "properties": {
        "@id": "node/1900321211",
        "amenity": "bicycle_rental",
        "brand": "Villo!",
        "capacity": "25",
        "name": "Fabry",
        "network": "Villo!",
        "official_name": "FABRY - BOULEVARD DE LA WOLUWE / WOLUWELAAN 28",
        "operator": "JCDecaux",
        "ref": "126"
      },
      "geometry": {
        "type": "Point",
        "coordinates": [
          4.4345536,
          50.8373371
        ]
      },
      "id": "node/1900321211"
    },
    {
      "type": "Feature",
      "properties": {
        "@id": "node/1922281606",
        "addr:street": "Rue Philippe Baucq - Philippe Baucqstraat",
        "amenity": "bicycle_rental",
        "brand": "Villo!",
        "capacity": "25",
        "name": "Philippe Baucq",
        "network": "Villo!",
        "official_name": "PHILIPPE BAUCQ - RUE PHILIPPE BAUCQ / PHILIPPE BAUCQSTRAAT 32 - 38",
        "operator": "JCDecaux",
        "ref": "184"
      },
      "geometry": {
        "type": "Point",
        "coordinates": [
          4.3857416,
          50.8315665
        ]
      },
      "id": "node/1922281606"
    },
    {
      "type": "Feature",
      "properties": {
        "@id": "node/1923543723",
        "amenity": "bicycle_rental",
        "brand": "Villo!",
        "capacity": "20",
        "name": "Jules César",
        "network": "Villo!",
        "note": "Official name is only in French - no Dutch translation",
        "operator": "JCDecaux",
        "ref": "63"
      },
      "geometry": {
        "type": "Point",
        "coordinates": [
          4.4214421,
          50.8346783
        ]
      },
      "id": "node/1923543723"
    },
    {
      "type": "Feature",
      "properties": {
        "@id": "node/1941409363",
        "amenity": "bicycle_rental",
        "brand": "Villo!",
        "capacity": "25",
        "name": "Étangs Mellaerts - Mellaerts Vijvers",
        "name:fr": "Étangs Mellaerts",
        "name:nl": "Mellaerts Vijvers",
        "network": "Villo!",
        "operator": "JCDecaux",
        "ref": "111"
      },
      "geometry": {
        "type": "Point",
        "coordinates": [
          4.4316931,
          50.8277025
        ]
      },
      "id": "node/1941409363"
    },
    {
      "type": "Feature",
      "properties": {
        "@id": "node/1941409372",
        "amenity": "bicycle_rental",
        "brand": "Villo!",
        "capacity": "22",
        "name": "Delta",
        "network": "Villo!",
        "official_name": "DELTA - BD DES INVALIDES / INVALIDENLAAN",
        "operator": "JCDecaux",
        "ref": "311"
      },
      "geometry": {
        "type": "Point",
        "coordinates": [
          4.4040267,
          50.8183537
        ]
      },
      "id": "node/1941409372"
    },
    {
      "type": "Feature",
      "properties": {
        "@id": "node/1941409386",
        "amenity": "bicycle_rental",
        "brand": "Villo!",
        "capacity": "25",
        "construction": "yes",
        "name": "Jardin Massart",
        "network": "Villo!",
        "official_name": "JARDIN MASSART - AV HERMANN DEBROUXLAAN",
        "operator": "JCDecaux",
        "ref": "131"
      },
      "geometry": {
        "type": "Point",
        "coordinates": [
          4.4347894,
          50.8133802
        ]
      },
      "id": "node/1941409386"
    },
    {
      "type": "Feature",
      "properties": {
        "@id": "node/1941409406",
        "addr:city": "Woluwe-Saint-Pierre - Sint-Pieters-Woluwe",
        "addr:postcode": "1150",
        "addr:street": "Avenue de Tervueren - Tervurenlaan",
        "amenity": "bicycle_rental",
        "brand": "Villo!",
        "capacity": "25",
        "name": "Musée du Tram",
        "network": "Villo!",
        "note": "Official name is only in French - no Dutch translation",
        "operator": "JCDecaux",
        "ref": "128"
      },
      "geometry": {
        "type": "Point",
        "coordinates": [
          4.4324815,
          50.8323066
        ]
      },
      "id": "node/1941409406"
    },
    {
      "type": "Feature",
      "properties": {
        "@id": "node/2166803226",
        "amenity": "bicycle_rental",
        "brand": "Villo!",
        "capacity": "35",
        "name": "Fontainas",
        "network": "Villo!",
        "operator": "JCDecaux",
        "ref": "34"
      },
      "geometry": {
        "type": "Point",
        "coordinates": [
          4.3468007,
          50.8455196
        ]
      },
      "id": "node/2166803226"
    },
    {
      "type": "Feature",
      "properties": {
        "@id": "node/2167923954",
        "addr:city": "Anderlecht",
        "addr:postcode": "1070",
        "addr:street": "Boulevard Sylvain Dupuis - Sylvain Dupuislaan",
        "amenity": "bicycle_rental",
        "brand": "Villo!",
        "capacity": "25",
        "name": "Dupuis",
        "network": "Villo!",
        "operator": "JCDecaux",
        "ref": "204"
      },
      "geometry": {
        "type": "Point",
        "coordinates": [
          4.293873,
          50.8373584
        ]
      },
      "id": "node/2167923954"
    },
    {
      "type": "Feature",
      "properties": {
        "@id": "node/2241291665",
        "amenity": "bicycle_rental",
        "brand": "Villo!",
        "capacity": "19",
        "name": "Tivoli",
        "network": "Villo!",
        "operator": "JCDecaux",
        "ref": "308"
      },
      "geometry": {
        "type": "Point",
        "coordinates": [
          4.3518938,
          50.8722542
        ]
      },
      "id": "node/2241291665"
    },
    {
      "type": "Feature",
      "properties": {
        "@id": "node/2279446159",
        "amenity": "bicycle_rental",
        "brand": "Villo!",
        "capacity": "25",
        "name": "Wiener",
        "network": "Villo!",
        "operator": "JCDecaux",
        "ref": "294"
      },
      "geometry": {
        "type": "Point",
        "coordinates": [
          4.4190726,
          50.7984585
        ]
      },
      "id": "node/2279446159"
    },
    {
      "type": "Feature",
      "properties": {
        "@id": "node/2302371945",
        "amenity": "bicycle_rental",
        "brand": "Villo!",
        "capacity": "20",
        "name": "Abbaye de la Cambre - Abdij ter Kameren",
        "name:fr": "Abbaye de la Cambre",
        "name:nl": "Abdij ter Kameren",
        "network": "Villo!",
        "official_name": "ABBAYE DE LA CAMBRE/ABDIJ TER KAMEREN - AVENUE EMILE DURAY (FACE AU N° 2) /EMILE DURAYLAAN (TEGENOVER N° 2)",
        "operator": "JCDecaux",
        "ref": "113"
      },
      "geometry": {
        "type": "Point",
        "coordinates": [
          4.374895,
          50.8199603
        ]
      },
      "id": "node/2302371945"
    },
    {
      "type": "Feature",
      "properties": {
        "@id": "node/2325765178",
        "amenity": "bicycle_rental",
        "brand": "Villo!",
        "capacity": "22",
        "name": "ADEPS",
        "network": "Villo!",
        "official_name": "ADEPS - CHEE DE WAVRE / WAVERSESTEENWEG 2057",
        "operator": "JCDecaux",
        "ref": "326"
      },
      "geometry": {
        "type": "Point",
        "coordinates": [
          4.4437879,
          50.8096144
        ]
      },
      "id": "node/2325765178"
    },
    {
      "type": "Feature",
      "properties": {
        "@id": "node/2455149880",
        "amenity": "bicycle_rental",
        "brand": "Villo!",
        "capacity": "19",
        "name": "Deux Chaussées",
        "network": "Villo!",
        "note": "Official name is only in French - no Dutch translation",
        "operator": "JCDecaux",
        "ref": "132"
      },
      "geometry": {
        "type": "Point",
        "coordinates": [
          4.4339125,
          50.8163817
        ]
      },
      "id": "node/2455149880"
    },
    {
      "type": "Feature",
      "properties": {
        "@id": "node/2507629337",
        "addr:city": "Koekelberg",
        "addr:postcode": "1081",
        "addr:street": "Rue de l'Église Sainte-Anne - Sint-Annakerkstraat",
        "amenity": "bicycle_rental",
        "brand": "Villo!",
        "capacity": "20",
        "name": "Ste Anne - Sint-Anna",
        "name:fr": "Ste Anne",
        "name:nl": "Sint-Anna",
        "network": "Villo!",
        "operator": "JCDecaux",
        "ref": "84"
      },
      "geometry": {
        "type": "Point",
        "coordinates": [
          4.3301481,
          50.8589532
        ]
      },
      "id": "node/2507629337"
    },
    {
      "type": "Feature",
      "properties": {
        "@id": "node/2507633164",
        "amenity": "bicycle_rental",
        "brand": "Villo!",
        "capacity": "25",
        "name": "Reine Fabiola - Koningin Fabiola",
        "name:fr": "Reine Fabiola",
        "name:nl": "Koningin Fabiola",
        "network": "Villo!",
        "official_name": "REINE FABIOLA / KONINGIN FABIOLA - AV PIETER GODEFROY / PIETER GODEFROYLAAN",
        "operator": "JCDecaux",
        "ref": "253"
      },
      "geometry": {
        "type": "Point",
        "coordinates": [
          4.314307,
          50.8726049
        ]
      },
      "id": "node/2507633164"
    },
    {
      "type": "Feature",
      "properties": {
        "@id": "node/2561150569",
        "amenity": "bicycle_rental",
        "brand": "Villo!",
        "capacity": "22",
        "name": "Meudon",
        "network": "Villo!",
        "official_name": "MEUDON - SQUARE MEUDON",
        "operator": "JCDecaux",
        "ref": "339"
      },
      "geometry": {
        "type": "Point",
        "coordinates": [
          4.4180701,
          50.8452643
        ]
      },
      "id": "node/2561150569"
    },
    {
      "type": "Feature",
      "properties": {
        "@id": "node/2561150571",
        "amenity": "bicycle_rental",
        "brand": "Villo!",
        "capacity": "25",
        "name": "Tractebel",
        "network": "Villo!",
        "official_name": "TRACTEBEL - AV MARCEL THIRY FACE AU N°93",
        "operator": "JCDecaux",
        "ref": "333"
      },
      "geometry": {
        "type": "Point",
        "coordinates": [
          4.4304497,
          50.8563567
        ]
      },
      "id": "node/2561150571"
    },
    {
      "type": "Feature",
      "properties": {
        "@id": "node/2561150572",
        "amenity": "bicycle_rental",
        "brand": "Villo!",
        "capacity": "24",
        "name": "Vergote",
        "network": "Villo!",
        "operator": "JCDecaux",
        "ref": "332"
      },
      "geometry": {
        "type": "Point",
        "coordinates": [
          4.4043312,
          50.8451906
        ]
      },
      "id": "node/2561150572"
    },
    {
      "type": "Feature",
      "properties": {
        "@id": "node/2561150574",
        "amenity": "bicycle_rental",
        "brand": "Villo!",
        "capacity": "20",
        "name": "Georges Henri",
        "network": "Villo!",
        "operator": "JCDecaux",
        "ref": "331"
      },
      "geometry": {
        "type": "Point",
        "coordinates": [
          4.4064074,
          50.8424852
        ]
      },
      "id": "node/2561150574"
    },
    {
      "type": "Feature",
      "properties": {
        "@id": "node/2561150580",
        "addr:city": "Woluwe-Saint-Lambert - Sint-Lambrechts-Woluwe",
        "addr:postcode": "1200",
        "addr:street": "Avenue Marcel Thiry - Marcel Thirylaan",
        "amenity": "bicycle_rental",
        "brand": "Villo!",
        "capacity": "20",
        "name": "Marcel Thiry",
        "network": "Villo!",
        "operator": "JCDecaux",
        "ref": "334"
      },
      "geometry": {
        "type": "Point",
        "coordinates": [
          4.43873,
          50.8557754
        ]
      },
      "id": "node/2561150580"
    },
    {
      "type": "Feature",
      "properties": {
        "@id": "node/2561150583",
        "amenity": "bicycle_rental",
        "brand": "Villo!",
        "capacity": "25",
        "name": "Vandervelde",
        "network": "Villo!",
        "official_name": "VANDERVELDE - AVENUE EMILE VANDERVELDE 90",
        "operator": "JCDecaux",
        "ref": "330"
      },
      "geometry": {
        "type": "Point",
        "coordinates": [
          4.4502517,
          50.847551
        ]
      },
      "id": "node/2561150583"
    },
    {
      "type": "Feature",
      "properties": {
        "@id": "node/2612126591",
        "amenity": "bicycle_rental",
        "brand": "Villo!",
        "capacity": "25",
        "name": "Roodebeek",
        "network": "Villo!",
        "operator": "JCDecaux",
        "ref": "329"
      },
      "geometry": {
        "type": "Point",
        "coordinates": [
          4.4361169,
          50.8477084
        ]
      },
      "id": "node/2612126591"
    },
    {
      "type": "Feature",
      "properties": {
        "@id": "node/2924631797",
        "amenity": "bicycle_rental",
        "brand": "Villo!",
        "capacity": "20",
        "name": "Carène",
        "network": "Villo!",
        "note": "Official name is only in French - no Dutch translation",
        "operator": "JCDecaux",
        "ref": "323"
      },
      "geometry": {
        "type": "Point",
        "coordinates": [
          4.4152524,
          50.8552334
        ]
      },
      "id": "node/2924631797"
    },
    {
      "type": "Feature",
      "properties": {
        "@id": "node/2924631798",
        "amenity": "bicycle_rental",
        "brand": "Villo!",
        "capacity": "20",
        "name": "Heydenberg",
        "network": "Villo!",
        "operator": "JCDecaux",
        "ref": "328"
      },
      "geometry": {
        "type": "Point",
        "coordinates": [
          4.4170876,
          50.8493754
        ]
      },
      "id": "node/2924631798"
    },
    {
      "type": "Feature",
      "properties": {
        "@id": "node/2924632565",
        "addr:city": "Woluwe-Saint-Lambert - Sint-Lambrechts-Woluwe",
        "addr:postcode": "1200",
        "addr:street": "Avenue Emmanuel Mounier - Emmanuel Mounierlaan",
        "amenity": "bicycle_rental",
        "brand": "Villo!",
        "capacity": "26",
        "name": "UCL",
        "network": "Villo!",
        "note": "As of 2020-03-28, the name of this Villo! station is still \"UCL\" - please do not rename into UCLouvain",
        "operator": "JCDecaux",
        "ref": "338"
      },
      "geometry": {
        "type": "Point",
        "coordinates": [
          4.4523711,
          50.8511779
        ]
      },
      "id": "node/2924632565"
    },
    {
      "type": "Feature",
      "properties": {
        "@id": "node/2924632566",
        "amenity": "bicycle_rental",
        "brand": "Villo!",
        "capacity": "17",
        "name": "Kraainem",
        "network": "Villo!",
        "official_name": "KRAAINEM - AV DE WEZEMBEEK 7A",
        "operator": "JCDecaux",
        "ref": "336"
      },
      "geometry": {
        "type": "Point",
        "coordinates": [
          4.4590357,
          50.8485953
        ]
      },
      "id": "node/2924632566"
    },
    {
      "type": "Feature",
      "properties": {
        "@id": "node/3008738975",
        "addr:city": "Uccle - Ukkel",
        "addr:postcode": "1180",
        "addr:street": "Place Jean Vander Elst - Jean Vander Elstplein",
        "amenity": "bicycle_rental",
        "brand": "Villo!",
        "capacity": "25",
        "name": "Maison communale d'Uccle - Ukkel gemeentehuis",
        "name:fr": "Maison communale d'Uccle",
        "name:nl": "Ukkel gemeentehuis",
        "network": "Villo!",
        "operator": "JCDecaux",
        "ref": "242"
      },
      "geometry": {
        "type": "Point",
        "coordinates": [
          4.3334104,
          50.8037764
        ]
      },
      "id": "node/3008738975"
    },
    {
      "type": "Feature",
      "properties": {
        "@id": "node/3025040790",
        "amenity": "bicycle_rental",
        "brand": "Villo!",
        "capacity": "25",
        "name": "Stalle",
        "network": "Villo!",
        "official_name": "STALLE - RUE DE STALLE PROLONGEE/VERLENGDE STALLESTRAAT",
        "operator": "JCDecaux",
        "ref": "247"
      },
      "geometry": {
        "type": "Point",
        "coordinates": [
          4.3209018,
          50.795837
        ]
      },
      "id": "node/3025040790"
    },
    {
      "type": "Feature",
      "properties": {
        "@id": "node/3237981117",
        "addr:city": "Jette",
        "addr:postcode": "1090",
        "addr:street": "Place de l'Ancienne Barrière - Oude Afspanningsplein",
        "amenity": "bicycle_rental",
        "brand": "Villo!",
        "capacity": "20",
        "name": "Ancienne Barrière - Oude Afspanning",
        "name:fr": "Ancienne Barrière",
        "name:nl": "Oude Afspanning",
        "network": "Villo!",
        "operator": "JCDecaux",
        "ref": "319"
      },
      "geometry": {
        "type": "Point",
        "coordinates": [
          4.3174772,
          50.8849343
        ]
      },
      "id": "node/3237981117"
    },
    {
      "type": "Feature",
      "properties": {
        "@id": "node/3254392564",
        "amenity": "bicycle_rental",
        "brand": "Villo!",
        "capacity": "35",
        "name": "Place Saint-Jean - Sint Jansplein",
        "name:fr": "Place Saint-Jean",
        "name:nl": "Sint Jansplein",
        "network": "Villo!",
        "operator": "JCDecaux",
        "ref": "36"
      },
      "geometry": {
        "type": "Point",
        "coordinates": [
          4.3515266,
          50.8451455
        ]
      },
      "id": "node/3254392564"
    },
    {
      "type": "Feature",
      "properties": {
        "@id": "node/3365570647",
        "amenity": "bicycle_rental",
        "brand": "Villo!",
        "capacity": "25",
        "name": "Square Albert I - Albert I square",
        "name:fr": "Square Albert I",
        "name:nl": "Albert I square",
        "network": "Villo!",
        "operator": "JCDecaux",
        "ref": "27"
      },
      "geometry": {
        "type": "Point",
        "coordinates": [
          4.3219906,
          50.8387288
        ]
      },
      "id": "node/3365570647"
    },
    {
      "type": "Feature",
      "properties": {
        "@id": "node/3365570648",
        "addr:city": "Anderlecht",
        "addr:postcode": "1070",
        "addr:street": "Rue Van Lint - Van Lintstraat",
        "amenity": "bicycle_rental",
        "brand": "Villo!",
        "capacity": "25",
        "name": "Van Lint",
        "network": "Villo!",
        "operator": "JCDecaux",
        "ref": "26"
      },
      "geometry": {
        "type": "Point",
        "coordinates": [
          4.328554,
          50.8393864
        ]
      },
      "id": "node/3365570648"
    },
    {
      "type": "Feature",
      "properties": {
        "@id": "node/3417595324",
        "amenity": "bicycle_rental",
        "brand": "Villo!",
        "capacity": "25",
        "name": "Montgomery",
        "network": "Villo!",
        "official_name": "MONTGOMERY - AVENUE DE TERVUREN / TERVURENLAAN 136-138",
        "operator": "JCDecaux",
        "ref": "15"
      },
      "geometry": {
        "type": "Point",
        "coordinates": [
          4.4069795,
          50.8369408
        ]
      },
      "id": "node/3417595324"
    },
    {
      "type": "Feature",
      "properties": {
        "@id": "node/3472771395",
        "advertising": "yes",
        "amenity": "bicycle_rental",
        "brand": "Villo!",
        "capacity": "24",
        "name": "Parnasse",
        "network": "Villo!",
        "official_name": "PARNASSE - RUE DU TRONE N°66 (CLOS PARNASSE)",
        "operator": "JCDecaux",
        "ref": "355"
      },
      "geometry": {
        "type": "Point",
        "coordinates": [
          4.3691834,
          50.8377528
        ]
      },
      "id": "node/3472771395"
    },
    {
      "type": "Feature",
      "properties": {
        "@id": "node/3600439364",
        "addr:city": "Forest - Vorst",
        "addr:postcode": "1190",
        "addr:street": "Avenue Kersbeek - Kersbeeklaan",
        "amenity": "bicycle_rental",
        "brand": "Villo!",
        "capacity": "19",
        "name": "Kersbeek",
        "network": "Villo!",
        "operator": "JCDecaux",
        "ref": "231"
      },
      "geometry": {
        "type": "Point",
        "coordinates": [
          4.3192929,
          50.8058538
        ]
      },
      "id": "node/3600439364"
    },
    {
      "type": "Feature",
      "properties": {
        "@id": "node/3757083722",
        "addr:city": "Schaerbeek - Schaarbeek",
        "addr:postcode": "1030",
        "addr:street": "Boulevard Simon Bolivar - Simon Bolivarlaan",
        "amenity": "bicycle_rental",
        "brand": "Villo!",
        "capacity": "42",
        "name": "Gare du Nord - Noordstation",
        "name:fr": "Gare du Nord",
        "name:nl": "Noordstation",
        "network": "Villo!",
        "operator": "JCDecaux",
        "ref": "141"
      },
      "geometry": {
        "type": "Point",
        "coordinates": [
          4.3588679,
          50.8607234
        ]
      },
      "id": "node/3757083722"
    },
    {
      "type": "Feature",
      "properties": {
        "@id": "node/3757286053",
        "amenity": "bicycle_rental",
        "brand": "Villo!",
        "capacity": "25",
        "name": "Hôtel Président - President Hotel",
        "name:fr": "Hôtel Président",
        "name:nl": "President Hotel",
        "network": "Villo!",
        "operator": "JCDecaux",
        "ref": "96"
      },
      "geometry": {
        "type": "Point",
        "coordinates": [
          4.3586447,
          50.8637068
        ]
      },
      "id": "node/3757286053"
    },
    {
      "type": "Feature",
      "properties": {
        "@id": "node/3798489743",
        "amenity": "bicycle_rental",
        "brand": "Villo!",
        "capacity": "20",
        "name": "Versailles",
        "network": "Villo!",
        "official_name": "VERSAILLES - AVENUE DE VERSAILLES / VERSAILLESLAAN 125",
        "operator": "JCDecaux",
        "ref": "275"
      },
      "geometry": {
        "type": "Point",
        "coordinates": [
          4.3727801,
          50.8962656
        ]
      },
      "id": "node/3798489743"
    },
    {
      "type": "Feature",
      "properties": {
        "@id": "node/3810525803",
        "amenity": "bicycle_rental",
        "brand": "Villo!",
        "capacity": "26",
        "name": "Cardinal Mercier - Kardinaal Mercier",
        "name:fr": "Cardinal Mercier",
        "name:nl": "Kardinaal Mercier",
        "network": "Villo!",
        "operator": "JCDecaux",
        "ref": "318"
      },
      "geometry": {
        "type": "Point",
        "coordinates": [
          4.3282997,
          50.8805624
        ]
      },
      "id": "node/3810525803"
    },
    {
      "type": "Feature",
      "properties": {
        "@id": "node/3882230177",
        "addr:city": "Uccle - Ukkel",
        "addr:postcode": "1180",
        "addr:street": "Avenue de Messidor - Messidorlaan",
        "amenity": "bicycle_rental",
        "brand": "Villo!",
        "capacity": "25",
        "name": "Rondpoint Churchill - Rotonde Churchill",
        "name:fr": "Rondpoint Churchill",
        "name:nl": "Rotonde Churchill",
        "network": "Villo!",
        "operator": "JCDecaux",
        "ref": "243"
      },
      "geometry": {
        "type": "Point",
        "coordinates": [
          4.3532543,
          50.8116816
        ]
      },
      "id": "node/3882230177"
    },
    {
      "type": "Feature",
      "properties": {
        "@id": "node/3882247889",
        "amenity": "bicycle_rental",
        "brand": "Villo!",
        "capacity": "20",
        "name": "Léopold II - Leopold II",
        "name:fr": "Léopold II",
        "name:nl": "Leopold II",
        "network": "Villo!",
        "operator": "JCDecaux",
        "ref": "1"
      },
      "geometry": {
        "type": "Point",
        "coordinates": [
          4.4147039,
          50.8362865
        ]
      },
      "id": "node/3882247889"
    },
    {
      "type": "Feature",
      "properties": {
        "@id": "node/3887696049",
        "addr:city": "Woluwe-Saint-Pierre - Sint-Pieters-Woluwe",
        "addr:postcode": "1150",
        "addr:street": "Avenue de Tervueren - Tervurenlaan",
        "amenity": "bicycle_rental",
        "brand": "Villo!",
        "capacity": "25",
        "name": "Madoux",
        "network": "Villo!",
        "operator": "JCDecaux",
        "ref": "358"
      },
      "geometry": {
        "type": "Point",
        "coordinates": [
          4.4448353,
          50.8271544
        ]
      },
      "id": "node/3887696049"
    },
    {
      "type": "Feature",
      "properties": {
        "@id": "node/3887696050",
        "amenity": "bicycle_rental",
        "brand": "Villo!",
        "capacity": "23",
        "name": "Rond Point du Souverain",
        "network": "Villo!",
        "note": "Official name is only in French - no Dutch translation",
        "operator": "JCDecaux",
        "ref": "130"
      },
      "geometry": {
        "type": "Point",
        "coordinates": [
          4.4291201,
          50.8194638
        ]
      },
      "id": "node/3887696050"
    },
    {
      "type": "Feature",
      "properties": {
        "@id": "node/3887696051",
        "amenity": "bicycle_rental",
        "brand": "Villo!",
        "capacity": "25",
        "name": "Centre culturel - Cultureel centrum",
        "name:fr": "Centre culturel",
        "name:nl": "Cultureel centrum",
        "network": "Villo!",
        "operator": "JCDecaux",
        "ref": "312"
      },
      "geometry": {
        "type": "Point",
        "coordinates": [
          4.4266675,
          50.8169761
        ]
      },
      "id": "node/3887696051"
    },
    {
      "type": "Feature",
      "properties": {
        "@id": "node/3889773501",
        "amenity": "bicycle_rental",
        "brand": "Villo!",
        "capacity": "20",
        "name": "Noville",
        "network": "Villo!",
        "official_name": "NOVILLE - SQUARE NOVILLE",
        "operator": "JCDecaux",
        "ref": "259"
      },
      "geometry": {
        "type": "Point",
        "coordinates": [
          4.3340595,
          50.8596157
        ]
      },
      "id": "node/3889773501"
    },
    {
      "type": "Feature",
      "properties": {
        "@id": "node/3889824628",
        "addr:city": "Koekelberg",
        "addr:postcode": "1081",
        "addr:street": "Place de Bastogne - Bastenakenplein",
        "amenity": "bicycle_rental",
        "brand": "Villo!",
        "capacity": "25",
        "name": "Bastogne - Bastenaken",
        "name:fr": "Bastogne",
        "name:nl": "Bastenaken",
        "network": "Villo!",
        "operator": "JCDecaux",
        "ref": "134"
      },
      "geometry": {
        "type": "Point",
        "coordinates": [
          4.3166496,
          50.8626088
        ]
      },
      "id": "node/3889824628"
    },
    {
      "type": "Feature",
      "properties": {
        "@id": "node/3889824629",
        "amenity": "bicycle_rental",
        "brand": "Villo!",
        "capacity": "25",
        "name": "Baudouin - Boudewijn",
        "name:fr": "Baudouin",
        "name:nl": "Boudewijn",
        "network": "Villo!",
        "official_name": "BAUDOUIN/BOUDEWIJN - RUE DE LAEKEN / LAKENSESTRAAT",
        "operator": "JCDecaux",
        "ref": "29"
      },
      "geometry": {
        "type": "Point",
        "coordinates": [
          4.3528589,
          50.8565858
        ]
      },
      "id": "node/3889824629"
    },
    {
      "type": "Feature",
      "properties": {
        "@id": "node/3905108607",
        "addr:city": "Woluwe-Saint-Pierre - Sint-Pieters-Woluwe",
        "addr:postcode": "1150",
        "addr:street": "Avenue de l'Aviation - Luchtvaardlaan",
        "amenity": "bicycle_rental",
        "brand": "Villo!",
        "capacity": "20",
        "name": "Aviation",
        "network": "Villo!",
        "note": "Official name is not translated into Dutch",
        "operator": "JCDecaux",
        "ref": "357"
      },
      "geometry": {
        "type": "Point",
        "coordinates": [
          4.4567243,
          50.8346224
        ]
      },
      "id": "node/3905108607"
    },
    {
      "type": "Feature",
      "properties": {
        "@id": "node/3905108608",
        "addr:city": "Woluwe-Saint-Pierre - Sint-Pieters-Woluwe",
        "addr:postcode": "1150",
        "addr:street": "Avenue Jules Du Jardin - Jules Du Jardinlaan",
        "amenity": "bicycle_rental",
        "brand": "Villo!",
        "capacity": "16",
        "name": "Centre Sportif",
        "network": "Villo!",
        "note": "Official name is not translated into Dutch",
        "operator": "JCDecaux",
        "ref": "356"
      },
      "geometry": {
        "type": "Point",
        "coordinates": [
          4.4551268,
          50.8296897
        ]
      },
      "id": "node/3905108608"
    },
    {
      "type": "Feature",
      "properties": {
        "@id": "node/3905108609",
        "addr:city": "Woluwe-Saint-Lambert - Sint-Lambrechts-Woluwe",
        "addr:postcode": "1200",
        "addr:street": "Boulevard de la Woluwe - Woluwedal",
        "amenity": "bicycle_rental",
        "brand": "Villo!",
        "capacity": "20",
        "name": "Thiry",
        "network": "Villo!",
        "operator": "JCDecaux",
        "ref": "335"
      },
      "geometry": {
        "type": "Point",
        "coordinates": [
          4.4440796,
          50.8540729
        ]
      },
      "id": "node/3905108609"
    },
    {
      "type": "Feature",
      "properties": {
        "@id": "node/3905241441",
        "amenity": "bicycle_rental",
        "brand": "Villo!",
        "capacity": "22",
        "name": "Verheyleweghen",
        "network": "Villo!",
        "operator": "JCDecaux",
        "ref": "350"
      },
      "geometry": {
        "type": "Point",
        "coordinates": [
          4.4255738,
          50.8481673
        ]
      },
      "id": "node/3905241441"
    },
    {
      "type": "Feature",
      "properties": {
        "@id": "node/3910709804",
        "addr:city": "Bruxelles - Brussel",
        "addr:postcode": "1000",
        "addr:street": "Boulevard d'Anvers - Antwerpselaan",
        "amenity": "bicycle_rental",
        "brand": "Villo!",
        "capacity": "23",
        "name": "Jacqmain",
        "network": "Villo!",
        "operator": "JCDecaux",
        "ref": "22"
      },
      "geometry": {
        "type": "Point",
        "coordinates": [
          4.3560224,
          50.8557463
        ]
      },
      "id": "node/3910709804"
    },
    {
      "type": "Feature",
      "properties": {
        "@id": "node/3910830478",
        "amenity": "bicycle_rental",
        "brand": "Villo!",
        "capacity": "25",
        "name": "Laeken - Laken",
        "name:fr": "Laeken",
        "name:nl": "Laken",
        "network": "Villo!",
        "official_name": "LAEKEN/LAKEN - RUE DE LAEKEN (ENTRE N° 119 ET 109) / LAKENSESTRAAT (TUSSEN N° 119 EN 109)",
        "operator": "JCDecaux",
        "ref": "30"
      },
      "geometry": {
        "type": "Point",
        "coordinates": [
          4.3519764,
          50.8541066
        ]
      },
      "id": "node/3910830478"
    },
    {
      "type": "Feature",
      "properties": {
        "@id": "node/3910830479",
        "addr:city": "Bruxelles - Brussel",
        "addr:postcode": "1000",
        "addr:street": "Quai à la Chaux - Kalkkaai",
        "amenity": "bicycle_rental",
        "brand": "Villo!",
        "capacity": "20",
        "name": "Les Quais - Kaaien",
        "name:fr": "Les Quais",
        "name:nl": "Kaaien",
        "network": "Villo!",
        "operator": "JCDecaux",
        "ref": "47"
      },
      "geometry": {
        "type": "Point",
        "coordinates": [
          4.3471516,
          50.8547221
        ]
      },
      "id": "node/3910830479"
    },
    {
      "type": "Feature",
      "properties": {
        "@id": "node/3999722118",
        "amenity": "bicycle_rental",
        "brand": "Villo!",
        "capacity": "22",
        "name": "Osseghem",
        "network": "Villo!",
        "operator": "JCDecaux",
        "ref": "188"
      },
      "geometry": {
        "type": "Point",
        "coordinates": [
          4.3244097,
          50.8571599
        ]
      },
      "id": "node/3999722118"
    },
    {
      "type": "Feature",
      "properties": {
        "@id": "node/4000662171",
        "addr:city": "Anderlecht",
        "addr:postcode": "1070",
        "addr:street": "Boulevard Sylvain Dupuis - Sylvain Dupuislaan",
        "amenity": "bicycle_rental",
        "brand": "Villo!",
        "capacity": "25",
        "name": "Westland Shopping",
        "network": "Villo!",
        "operator": "JCDecaux",
        "ref": "195"
      },
      "geometry": {
        "type": "Point",
        "coordinates": [
          4.2884095,
          50.8377492
        ]
      },
      "id": "node/4000662171"
    },
    {
      "type": "Feature",
      "properties": {
        "@id": "node/4001118857",
        "amenity": "bicycle_rental",
        "brand": "Villo!",
        "capacity": "25",
        "name": "Claessens",
        "network": "Villo!",
        "official_name": "CLAESSENS - RUE CLAESSENS FACE 7 / CLAESSENSSTRAAT VOOR 7",
        "operator": "JCDecaux",
        "ref": "284"
      },
      "geometry": {
        "type": "Point",
        "coordinates": [
          4.3587294,
          50.8730636
        ]
      },
      "id": "node/4001118857"
    },
    {
      "type": "Feature",
      "properties": {
        "@id": "node/4001118858",
        "amenity": "bicycle_rental",
        "brand": "Villo!",
        "capacity": "25",
        "name": "Masui",
        "network": "Villo!",
        "official_name": "MASUI - AVENUE DE LA REINE / KONINGINNELAAN 153",
        "operator": "JCDecaux",
        "ref": "159"
      },
      "geometry": {
        "type": "Point",
        "coordinates": [
          4.3624771,
          50.869435
        ]
      },
      "id": "node/4001118858"
    },
    {
      "type": "Feature",
      "properties": {
        "@id": "node/4001118859",
        "amenity": "bicycle_rental",
        "brand": "Villo!",
        "capacity": "25",
        "name": "Sibelga",
        "network": "Villo!",
        "operator": "JCDecaux",
        "ref": "327"
      },
      "geometry": {
        "type": "Point",
        "coordinates": [
          4.3626281,
          50.8743099
        ]
      },
      "id": "node/4001118859"
    },
    {
      "type": "Feature",
      "properties": {
        "@id": "node/4026490271",
        "amenity": "bicycle_rental",
        "brand": "Villo!",
        "capacity": "25",
        "disused:amenity": "bicycle_rental",
        "name": "Fernand Cocq",
        "network": "Villo!",
        "note": "Temporarily removed during major reconstruction of the square - is expected to be reinstalled around mid-2019",
        "operator": "JCDecaux",
        "ref": "104"
      },
      "geometry": {
        "type": "Point",
        "coordinates": [
          4.3663098,
          50.833531
        ]
      },
      "id": "node/4026490271"
    },
    {
      "type": "Feature",
      "properties": {
        "@id": "node/4039079524",
        "addr:city": "Forest - Vorst",
        "addr:postcode": "1190",
        "addr:street": "Chaussée d'Alsemberg - Alsembergse Steenweg",
        "amenity": "bicycle_rental",
        "brand": "Villo!",
        "capacity": "25",
        "name": "Place Albert - Albertplein",
        "name:fr": "Place Albert",
        "name:nl": "Albertplein",
        "network": "Villo!",
        "operator": "JCDecaux",
        "ref": "225"
      },
      "geometry": {
        "type": "Point",
        "coordinates": [
          4.3419511,
          50.8210933
        ]
      },
      "id": "node/4039079524"
    },
    {
      "type": "Feature",
      "properties": {
        "@id": "node/4146802338",
        "addr:city": "Anderlecht",
        "addr:postcode": "1070",
        "addr:street": "Avenue Émile Gryson - Emile Grysonlaan",
        "amenity": "bicycle_rental",
        "brand": "Villo!",
        "capacity": "15",
        "name": "Campus CERIA - Campus van CERIA",
        "name:fr": "Campus CERIA",
        "name:nl": "Campus van CERIA",
        "network": "Villo!",
        "operator": "JCDecaux",
        "ref": "214"
      },
      "geometry": {
        "type": "Point",
        "coordinates": [
          4.2951561,
          50.8159508
        ]
      },
      "id": "node/4146802338"
    },
    {
      "type": "Feature",
      "properties": {
        "@id": "node/4171675245",
        "amenity": "bicycle_rental",
        "brand": "Villo!",
        "capacity": "20",
        "name": "Beaulieu",
        "network": "Villo!",
        "operator": "JCDecaux",
        "ref": "353"
      },
      "geometry": {
        "type": "Point",
        "coordinates": [
          4.4080941,
          50.81567
        ]
      },
      "id": "node/4171675245"
    },
    {
      "type": "Feature",
      "properties": {
        "@id": "node/4196908753",
        "amenity": "bicycle_rental",
        "brand": "Villo!",
        "capacity": "22",
        "name": "Prince de Ligne - Prince Lijn",
        "name:fr": "Prince de Ligne",
        "name:nl": "Prince Lijn",
        "network": "Villo!",
        "operator": "JCDecaux",
        "ref": "248"
      },
      "geometry": {
        "type": "Point",
        "coordinates": [
          4.3735056,
          50.795752
        ]
      },
      "id": "node/4196908753"
    },
    {
      "type": "Feature",
      "properties": {
        "@id": "node/4198957211",
        "addr:city": "Bruxelles - Brussel",
        "addr:postcode": "1040",
        "addr:street": "Rue de la Science - Wetenschapsstraat",
        "amenity": "bicycle_rental",
        "brand": "Villo!",
        "capacity": "25",
        "name": "Charlemagne - Karel de Grote",
        "name:fr": "Charlemagne",
        "name:nl": "Karel de Grote",
        "network": "Villo!",
        "operator": "JCDecaux",
        "ref": "44"
      },
      "geometry": {
        "type": "Point",
        "coordinates": [
          4.3710687,
          50.8417738
        ]
      },
      "id": "node/4198957211"
    },
    {
      "type": "Feature",
      "properties": {
        "@id": "node/4200124555",
        "amenity": "bicycle_rental",
        "brand": "Villo!",
        "name": "Clemenceau",
        "network": "Villo!",
        "operator": "JCDecaux",
        "ref": "28"
      },
      "geometry": {
        "type": "Point",
        "coordinates": [
          4.3303163,
          50.8420491
        ]
      },
      "id": "node/4200124555"
    },
    {
      "type": "Feature",
      "properties": {
        "@id": "node/4200124556",
        "addr:city": "Anderlecht",
        "addr:postcode": "1070",
        "addr:street": "Rue de Birmingham - Birminghamstraat",
        "amenity": "bicycle_rental",
        "brand": "Villo!",
        "capacity": "25",
        "name": "Delacroix",
        "network": "Villo!",
        "operator": "JCDecaux",
        "ref": "218"
      },
      "geometry": {
        "type": "Point",
        "coordinates": [
          4.323188,
          50.8459703
        ]
      },
      "id": "node/4200124556"
    },
    {
      "type": "Feature",
      "properties": {
        "@id": "node/4204095841",
        "amenity": "bicycle_rental",
        "brand": "Villo!",
        "capacity": "25",
        "name": "Keym",
        "network": "Villo!",
        "operator": "JCDecaux",
        "ref": "293"
      },
      "geometry": {
        "type": "Point",
        "coordinates": [
          4.4023618,
          50.8105146
        ]
      },
      "id": "node/4204095841"
    },
    {
      "type": "Feature",
      "properties": {
        "@id": "node/4296385575",
        "amenity": "bicycle_rental",
        "brand": "Villo!",
        "capacity": "25",
        "name": "Lemonnier",
        "network": "Villo!",
        "operator": "JCDecaux",
        "ref": "13"
      },
      "geometry": {
        "type": "Point",
        "coordinates": [
          4.3413117,
          50.8402046
        ]
      },
      "id": "node/4296385575"
    },
    {
      "type": "Feature",
      "properties": {
        "@id": "node/4296385576",
        "addr:city": "Bruxelles - Brussel",
        "addr:postcode": "1000",
        "addr:street": "Boulevard Maurice Lemonnier - Maurice Lemonnierlaan",
        "amenity": "bicycle_rental",
        "brand": "Villo!",
        "capacity": "35",
        "name": "Anneessens",
        "network": "Villo!",
        "operator": "JCDecaux",
        "ref": "9"
      },
      "geometry": {
        "type": "Point",
        "coordinates": [
          4.3452414,
          50.8439846
        ]
      },
      "id": "node/4296385576"
    },
    {
      "type": "Feature",
      "properties": {
        "@id": "node/4388220881",
        "addr:city": "Schaerbeek - Schaarbeek",
        "addr:postcode": "1030",
        "addr:street": "Place de Houffalize - Houffalizeplein",
        "amenity": "bicycle_rental",
        "brand": "Villo!",
        "capacity": "23",
        "name": "Houffalize",
        "network": "Villo!",
        "operator": "JCDecaux",
        "ref": "138"
      },
      "geometry": {
        "type": "Point",
        "coordinates": [
          4.3777947,
          50.8652138
        ]
      },
      "id": "node/4388220881"
    },
    {
      "type": "Feature",
      "properties": {
        "@id": "node/4417690493",
        "addr:city": "Koekelberg",
        "addr:postcode": "1081",
        "addr:street": "Avenue de la Liberté - Vrijheidslaan",
        "amenity": "bicycle_rental",
        "brand": "Villo!",
        "capacity": "18",
        "name": "Liberté",
        "network": "Villo!",
        "note": "Official name is not translated into Dutch",
        "operator": "JCDecaux",
        "ref": "258"
      },
      "geometry": {
        "type": "Point",
        "coordinates": [
          4.3233434,
          50.8621718
        ]
      },
      "id": "node/4417690493"
    },
    {
      "type": "Feature",
      "properties": {
        "@id": "node/4565622470",
        "amenity": "bicycle_rental",
        "brand": "Villo!",
        "capacity": "25",
        "name": "Vieux Tilleul",
        "network": "Villo!",
        "note": "Official name is only in French - no Dutch translation",
        "operator": "JCDecaux",
        "ref": "303"
      },
      "geometry": {
        "type": "Point",
        "coordinates": [
          4.3927419,
          50.8078576
        ]
      },
      "id": "node/4565622470"
    },
    {
      "type": "Feature",
      "properties": {
        "@id": "node/4657499217",
        "addr:city": "Auderghem - Oudergem",
        "addr:postcode": "1160",
        "addr:street": "Avenue Herrmann Debroux - Herrmann Debrouxlaan",
        "amenity": "bicycle_rental",
        "brand": "Villo!",
        "capacity": "30",
        "name": "Herrmann Debroux",
        "network": "Villo!",
        "operator": "JCDecaux",
        "ref": "314"
      },
      "geometry": {
        "type": "Point",
        "coordinates": [
          4.4279262,
          50.8123085
        ]
      },
      "id": "node/4657499217"
    },
    {
      "type": "Feature",
      "properties": {
        "@id": "node/4659844885",
        "addr:city": "Anderlecht",
        "addr:postcode": "1070",
        "addr:street": "Chaussée de Mons - Bergense Steenweg",
        "amenity": "bicycle_rental",
        "brand": "Villo!",
        "capacity": "16",
        "name": "Métro CERIA - Metro COOVI",
        "name:fr": "Métro CERIA",
        "name:nl": "Metro COOVI",
        "network": "Villo!",
        "operator": "JCDecaux",
        "ref": "211"
      },
      "geometry": {
        "type": "Point",
        "coordinates": [
          4.2909259,
          50.8167296
        ]
      },
      "id": "node/4659844885"
    },
    {
      "type": "Feature",
      "properties": {
        "@id": "node/4696397690",
        "amenity": "bicycle_rental",
        "brand": "Villo!",
        "capacity": "17",
        "name": "Bethléem",
        "network": "Villo!",
        "note": "Official name is only in French - no Dutch translation",
        "operator": "JCDecaux",
        "ref": "344"
      },
      "geometry": {
        "type": "Point",
        "coordinates": [
          4.3378997,
          50.8301869
        ]
      },
      "id": "node/4696397690"
    },
    {
      "type": "Feature",
      "properties": {
        "@id": "node/4908031978",
        "amenity": "bicycle_rental",
        "brand": "Villo!",
        "capacity": "25",
        "name": "Tamaris",
        "network": "Villo!",
        "note": "Official name is only in French - no Dutch translation",
        "operator": "JCDecaux",
        "ref": "273"
      },
      "geometry": {
        "type": "Point",
        "coordinates": [
          4.3064011,
          50.8549262
        ]
      },
      "id": "node/4908031978"
    },
    {
      "type": "Feature",
      "properties": {
        "@id": "node/4947668227",
        "addr:city": "Ixelles - Elsene",
        "addr:postcode": "1050",
        "addr:street": "Avenue Adolphe Buyl - Adolphe Buyllaan",
        "amenity": "bicycle_rental",
        "brand": "Villo!",
        "capacity": "25",
        "name": "ULB",
        "network": "Villo!",
        "operator": "JCDecaux",
        "ref": "351"
      },
      "geometry": {
        "type": "Point",
        "coordinates": [
          4.3840357,
          50.8139189
        ]
      },
      "id": "node/4947668227"
    },
    {
      "type": "Feature",
      "properties": {
        "@id": "node/4954548679",
        "addr:city": "Anderlecht",
        "addr:postcode": "1070",
        "addr:street": "Rue de Neerpede - Neerpedestraat",
        "amenity": "bicycle_rental",
        "brand": "Villo!",
        "capacity": "23",
        "name": "Van Hellemont",
        "network": "Villo!",
        "operator": "JCDecaux",
        "ref": "219"
      },
      "geometry": {
        "type": "Point",
        "coordinates": [
          4.286013,
          50.8295296
        ]
      },
      "id": "node/4954548679"
    },
    {
      "type": "Feature",
      "properties": {
        "@id": "node/4954657530",
        "addr:city": "Anderlecht",
        "addr:postcode": "1070",
        "addr:street": "Avenue Nellie Melba - Nellie Melbalaan",
        "amenity": "bicycle_rental",
        "brand": "Villo!",
        "capacity": "25",
        "name": "Melba",
        "network": "Villo!",
        "operator": "JCDecaux",
        "ref": "208"
      },
      "geometry": {
        "type": "Point",
        "coordinates": [
          4.294323,
          50.8325715
        ]
      },
      "id": "node/4954657530"
    },
    {
      "type": "Feature",
      "properties": {
        "@id": "node/4954661901",
        "addr:city": "Anderlecht",
        "addr:postcode": "1070",
        "addr:street": "Avenue Charles De Tollenaere - Charles De Tollenaerelaan",
        "amenity": "bicycle_rental",
        "brand": "Villo!",
        "capacity": "25",
        "name": "Marius Renard",
        "network": "Villo!",
        "operator": "JCDecaux",
        "ref": "210"
      },
      "geometry": {
        "type": "Point",
        "coordinates": [
          4.2885601,
          50.8279241
        ]
      },
      "id": "node/4954661901"
    },
    {
      "type": "Feature",
      "properties": {
        "@id": "node/4954669667",
        "addr:city": "Anderlecht",
        "addr:postcode": "1070",
        "addr:street": "Boulevard Maurice Carême - Maurice Carêmelaan",
        "amenity": "bicycle_rental",
        "brand": "Villo!",
        "capacity": "22",
        "name": "Luther King",
        "network": "Villo!",
        "operator": "JCDecaux",
        "ref": "220"
      },
      "geometry": {
        "type": "Point",
        "coordinates": [
          4.286927,
          50.8247902
        ]
      },
      "id": "node/4954669667"
    },
    {
      "type": "Feature",
      "properties": {
        "@id": "node/4954678228",
        "addr:city": "Anderlecht",
        "addr:postcode": "1070",
        "addr:street": "Boulevard Théo Lambert - Théo Lambertlaan",
        "amenity": "bicycle_rental",
        "brand": "Villo!",
        "capacity": "25",
        "name": "Théo Lambert",
        "network": "Villo!",
        "operator": "JCDecaux",
        "ref": "212"
      },
      "geometry": {
        "type": "Point",
        "coordinates": [
          4.2917988,
          50.8269337
        ]
      },
      "id": "node/4954678228"
    },
    {
      "type": "Feature",
      "properties": {
        "@id": "node/4954683443",
        "addr:city": "Anderlecht",
        "addr:postcode": "1070",
        "addr:street": "Route de Lennik - Lennikse Baan",
        "amenity": "bicycle_rental",
        "brand": "Villo!",
        "capacity": "24",
        "name": "Merckx",
        "network": "Villo!",
        "operator": "JCDecaux",
        "ref": "222"
      },
      "geometry": {
        "type": "Point",
        "coordinates": [
          4.280672,
          50.8172943
        ]
      },
      "id": "node/4954683443"
    },
    {
      "type": "Feature",
      "properties": {
        "@id": "node/4954683460",
        "addr:city": "Anderlecht",
        "addr:postcode": "1070",
        "addr:street": "Route de Lennik - Lennikse Baan",
        "amenity": "bicycle_rental",
        "brand": "Villo!",
        "capacity": "20",
        "name": "Recherche",
        "network": "Villo!",
        "note": "Official name is not translated into Dutch (Villo! website as of July 2017)",
        "operator": "JCDecaux",
        "ref": "346"
      },
      "geometry": {
        "type": "Point",
        "coordinates": [
          4.2737649,
          50.8159097
        ]
      },
      "id": "node/4954683460"
    },
    {
      "type": "Feature",
      "properties": {
        "@id": "node/4954684037",
        "addr:city": "Anderlecht",
        "addr:postcode": "1070",
        "addr:street": "Square Marie Curie - Marie Curiesquare",
        "amenity": "bicycle_rental",
        "brand": "Villo!",
        "capacity": "25",
        "name": "Curie",
        "network": "Villo!",
        "operator": "JCDecaux",
        "ref": "221"
      },
      "geometry": {
        "type": "Point",
        "coordinates": [
          4.2845264,
          50.8217897
        ]
      },
      "id": "node/4954684037"
    },
    {
      "type": "Feature",
      "properties": {
        "@id": "node/4954691063",
        "addr:city": "Anderlecht",
        "addr:postcode": "1070",
        "addr:street": "Route de Lennik - Lennikse Baan",
        "amenity": "bicycle_rental",
        "brand": "Villo!",
        "capacity": "25",
        "name": "Erasme",
        "network": "Villo!",
        "note": "Official name is not translated into Dutch (Villo! website as of July 2017)",
        "operator": "JCDecaux",
        "ref": "347"
      },
      "geometry": {
        "type": "Point",
        "coordinates": [
          4.2656255,
          50.8149759
        ]
      },
      "id": "node/4954691063"
    },
    {
      "type": "Feature",
      "properties": {
        "@id": "node/4954694760",
        "addr:city": "Anderlecht",
        "addr:postcode": "1070",
        "addr:street": "Chaussée de Mons - Bergense Steenweg",
        "amenity": "bicycle_rental",
        "brand": "Villo!",
        "capacity": "14",
        "name": "La Roue - Het Rad",
        "name:fr": "La Roue",
        "name:nl": "Het Rad",
        "network": "Villo!",
        "operator": "JCDecaux",
        "ref": "213"
      },
      "geometry": {
        "type": "Point",
        "coordinates": [
          4.2939288,
          50.8210006
        ]
      },
      "id": "node/4954694760"
    },
    {
      "type": "Feature",
      "properties": {
        "@id": "node/4954702971",
        "addr:city": "Anderlecht",
        "addr:postcode": "1070",
        "addr:street": "Boulevard Théo Lambert - Théo Lambertlaan",
        "amenity": "bicycle_rental",
        "brand": "Villo!",
        "capacity": "25",
        "name": "Veeweyde - Veeweide",
        "name:fr": "Veeweyde",
        "name:nl": "Veeweide",
        "network": "Villo!",
        "operator": "JCDecaux",
        "ref": "209"
      },
      "geometry": {
        "type": "Point",
        "coordinates": [
          4.2993751,
          50.8285709
        ]
      },
      "id": "node/4954702971"
    },
    {
      "type": "Feature",
      "properties": {
        "@id": "node/4954703872",
        "addr:city": "Anderlecht",
        "addr:postcode": "1070",
        "addr:street": "Place Bizet - Bizetplein",
        "amenity": "bicycle_rental",
        "brand": "Villo!",
        "capacity": "23",
        "name": "Bizet",
        "network": "Villo!",
        "operator": "JCDecaux",
        "ref": "217"
      },
      "geometry": {
        "type": "Point",
        "coordinates": [
          4.297338,
          50.8249753
        ]
      },
      "id": "node/4954703872"
    },
    {
      "type": "Feature",
      "properties": {
        "@id": "node/4954725127",
        "addr:city": "Anderlecht",
        "addr:postcode": "1070",
        "addr:street": "Chaussée de Mons - Bergense Steenweg",
        "amenity": "bicycle_rental",
        "brand": "Villo!",
        "capacity": "24",
        "name": "Aristide Briand",
        "network": "Villo!",
        "operator": "JCDecaux",
        "ref": "216"
      },
      "geometry": {
        "type": "Point",
        "coordinates": [
          4.3036984,
          50.8288266
        ]
      },
      "id": "node/4954725127"
    },
    {
      "type": "Feature",
      "properties": {
        "@id": "node/4954736893",
        "addr:city": "Anderlecht",
        "addr:postcode": "1070",
        "addr:street": "Place De Linde - De Lindeplein",
        "amenity": "bicycle_rental",
        "brand": "Villo!",
        "capacity": "11",
        "name": "De Linde",
        "network": "Villo!",
        "operator": "JCDecaux",
        "ref": "205"
      },
      "geometry": {
        "type": "Point",
        "coordinates": [
          4.2995992,
          50.8354588
        ]
      },
      "id": "node/4954736893"
    },
    {
      "type": "Feature",
      "properties": {
        "@id": "node/4954797412",
        "addr:city": "Anderlecht",
        "addr:postcode": "1070",
        "addr:street": "Avenue Paul Janson - Paul Jansonlaan",
        "amenity": "bicycle_rental",
        "brand": "Villo!",
        "capacity": "25",
        "name": "Saint-Guidon - Sint-Guido",
        "name:fr": "Saint-Guidon",
        "name:nl": "Sint-Guido",
        "network": "Villo!",
        "operator": "JCDecaux",
        "ref": "206"
      },
      "geometry": {
        "type": "Point",
        "coordinates": [
          4.3054627,
          50.8346586
        ]
      },
      "id": "node/4954797412"
    },
    {
      "type": "Feature",
      "properties": {
        "@id": "node/4954798176",
        "addr:city": "Anderlecht",
        "addr:postcode": "1070",
        "addr:street": "Chaussée de Mons - Bergense Steenweg",
        "amenity": "bicycle_rental",
        "brand": "Villo!",
        "capacity": "25",
        "name": "Biestebroeck - Biestebroek",
        "name:fr": "Biestebroeck",
        "name:nl": "Biestebroek",
        "network": "Villo!",
        "operator": "JCDecaux",
        "ref": "207"
      },
      "geometry": {
        "type": "Point",
        "coordinates": [
          4.3135361,
          50.8335641
        ]
      },
      "id": "node/4954798176"
    },
    {
      "type": "Feature",
      "properties": {
        "@id": "node/4954807683",
        "addr:city": "Anderlecht",
        "addr:postcode": "1070",
        "addr:street": "Avenue Raymond Vander Bruggen - Raymond Vander Bruggenlaan",
        "amenity": "bicycle_rental",
        "brand": "Villo!",
        "capacity": "25",
        "name": "Cureghem - Kuregem",
        "name:fr": "Cureghem",
        "name:nl": "Kuregem",
        "network": "Villo!",
        "operator": "JCDecaux",
        "ref": "215"
      },
      "geometry": {
        "type": "Point",
        "coordinates": [
          4.3175453,
          50.8369044
        ]
      },
      "id": "node/4954807683"
    },
    {
      "type": "Feature",
      "properties": {
        "@id": "node/4954814199",
        "addr:city": "Anderlecht",
        "addr:postcode": "1070",
        "addr:street": "Rue d'Aumale - d'Aumalestraat",
        "amenity": "bicycle_rental",
        "brand": "Villo!",
        "capacity": "25",
        "name": "Aumale",
        "network": "Villo!",
        "operator": "JCDecaux",
        "ref": "202"
      },
      "geometry": {
        "type": "Point",
        "coordinates": [
          4.3131528,
          50.8401144
        ]
      },
      "id": "node/4954814199"
    },
    {
      "type": "Feature",
      "properties": {
        "@id": "node/4954837448",
        "amenity": "bicycle_rental",
        "brand": "Villo!",
        "capacity": "15",
        "name": "Démosthène",
        "network": "Villo!",
        "note": "Official name is only in French - no Dutch translation",
        "operator": "JCDecaux",
        "ref": "203"
      },
      "geometry": {
        "type": "Point",
        "coordinates": [
          4.3048448,
          50.8406145
        ]
      },
      "id": "node/4954837448"
    },
    {
      "type": "Feature",
      "properties": {
        "@id": "node/4954846105",
        "addr:city": "Anderlecht",
        "addr:postcode": "1070",
        "addr:street": "Boulevard Maria Groeninckx-De May - Maria Groeninckx-De Maylaan",
        "amenity": "bicycle_rental",
        "brand": "Villo!",
        "capacity": "25",
        "name": "Peterbos",
        "network": "Villo!",
        "operator": "JCDecaux",
        "ref": "201"
      },
      "geometry": {
        "type": "Point",
        "coordinates": [
          4.2960492,
          50.8414817
        ]
      },
      "id": "node/4954846105"
    },
    {
      "type": "Feature",
      "properties": {
        "@id": "node/4954860024",
        "addr:city": "Anderlecht",
        "addr:postcode": "1070",
        "addr:street": "Boulevard Félix Paulsen - Félix Paulsenlaan",
        "amenity": "bicycle_rental",
        "brand": "Villo!",
        "capacity": "14",
        "name": "Henri Rey",
        "network": "Villo!",
        "operator": "JCDecaux",
        "ref": "199"
      },
      "geometry": {
        "type": "Point",
        "coordinates": [
          4.3048431,
          50.8437558
        ]
      },
      "id": "node/4954860024"
    },
    {
      "type": "Feature",
      "properties": {
        "@id": "node/4954874824",
        "amenity": "bicycle_rental",
        "brand": "Villo!",
        "capacity": "25",
        "name": "Prince de Liège - Prins van Luik",
        "name:fr": "Prince de Liège",
        "name:nl": "Prins van Luik",
        "network": "Villo!",
        "operator": "JCDecaux",
        "ref": "196"
      },
      "geometry": {
        "type": "Point",
        "coordinates": [
          4.2978153,
          50.8469016
        ]
      },
      "id": "node/4954874824"
    },
    {
      "type": "Feature",
      "properties": {
        "@id": "node/4954874944",
        "addr:city": "Anderlecht",
        "addr:postcode": "1070",
        "addr:street": "Chaussée de Ninove - Ninoofsesteenweg",
        "amenity": "bicycle_rental",
        "brand": "Villo!",
        "capacity": "25",
        "name": "Scheut",
        "network": "Villo!",
        "operator": "JCDecaux",
        "ref": "198"
      },
      "geometry": {
        "type": "Point",
        "coordinates": [
          4.30776,
          50.8476115
        ]
      },
      "id": "node/4954874944"
    },
    {
      "type": "Feature",
      "properties": {
        "@id": "node/4954876001",
        "addr:city": "Anderlecht",
        "addr:postcode": "1070",
        "addr:street": "Boulevard Jules Graindor - Jules Graindorlaan",
        "amenity": "bicycle_rental",
        "brand": "Villo!",
        "capacity": "25",
        "name": "Vétérans Coloniaux - Koloniale Veteranen",
        "name:fr": "Vétérans Coloniaux",
        "name:nl": "Koloniale Veteranen",
        "network": "Villo!",
        "operator": "JCDecaux",
        "ref": "200"
      },
      "geometry": {
        "type": "Point",
        "coordinates": [
          4.3137064,
          50.8439908
        ]
      },
      "id": "node/4954876001"
    },
    {
      "type": "Feature",
      "properties": {
        "@id": "node/4954881189",
        "addr:city": "Anderlecht",
        "addr:postcode": "1070",
        "addr:street": "Place Henri De Smet - Henri De Smetplein",
        "amenity": "bicycle_rental",
        "brand": "Villo!",
        "capacity": "24",
        "name": "De Smet",
        "network": "Villo!",
        "operator": "JCDecaux",
        "ref": "197"
      },
      "geometry": {
        "type": "Point",
        "coordinates": [
          4.3148026,
          50.8481477
        ]
      },
      "id": "node/4954881189"
    },
    {
      "type": "Feature",
      "properties": {
        "@id": "node/4977361317",
        "addr:city": "Ixelles - Elsene",
        "addr:postcode": "1050",
        "addr:street": "Place Marie-José - Marie-Joséplein",
        "amenity": "bicycle_rental",
        "brand": "Villo!",
        "capacity": "20",
        "name": "Marie-José",
        "network": "Villo!",
        "operator": "JCDecaux",
        "ref": "301"
      },
      "geometry": {
        "type": "Point",
        "coordinates": [
          4.387797,
          50.8063273
        ]
      },
      "id": "node/4977361317"
    },
    {
      "type": "Feature",
      "properties": {
        "@id": "node/5038450966",
        "amenity": "bicycle_rental",
        "brand": "Villo!",
        "capacity": "25",
        "name": "Square Armand Steurs - Armand Steurssquare",
        "name:fr": "Square Armand Steurs",
        "name:nl": "Armand Steurssquare",
        "network": "Villo!",
        "operator": "JCDecaux",
        "ref": "153"
      },
      "geometry": {
        "type": "Point",
        "coordinates": [
          4.3780587,
          50.8542474
        ]
      },
      "id": "node/5038450966"
    },
    {
      "type": "Feature",
      "properties": {
        "@id": "node/5073259914",
        "addr:city": "Uccle - Ukkel",
        "addr:postcode": "1180",
        "addr:street": "Avenue Albert - Albertlaan",
        "amenity": "bicycle_rental",
        "brand": "Villo!",
        "capacity": "23",
        "name": "Vanderkindere",
        "network": "Villo!",
        "operator": "JCDecaux",
        "ref": "240"
      },
      "geometry": {
        "type": "Point",
        "coordinates": [
          4.3476991,
          50.8142321
        ]
      },
      "id": "node/5073259914"
    },
    {
      "type": "Feature",
      "properties": {
        "@id": "node/5073273964",
        "addr:city": "Forest - Vorst",
        "addr:postcode": "1190",
        "addr:street": "Avenue Albert - Albertlaan",
        "amenity": "bicycle_rental",
        "brand": "Villo!",
        "capacity": "24",
        "name": "Berkendael - Berkendaal",
        "name:fr": "Berkendael",
        "name:nl": "Berkendaal",
        "network": "Villo!",
        "operator": "JCDecaux",
        "ref": "230"
      },
      "geometry": {
        "type": "Point",
        "coordinates": [
          4.3460507,
          50.818505
        ]
      },
      "id": "node/5073273964"
    },
    {
      "type": "Feature",
      "properties": {
        "@id": "node/5075578884",
        "addr:city": "Schaerbeek - Schaarbeek",
        "addr:postcode": "1030",
        "addr:street": "Place Princesse Elisabeth - Prinses Elisabethplein",
        "amenity": "bicycle_rental",
        "brand": "Villo!",
        "capacity": "23",
        "name": "Elisa",
        "network": "Villo!",
        "operator": "JCDecaux",
        "ref": "160"
      },
      "geometry": {
        "type": "Point",
        "coordinates": [
          4.3804139,
          50.8776008
        ]
      },
      "id": "node/5075578884"
    },
    {
      "type": "Feature",
      "properties": {
        "@id": "node/5122442540",
        "addr:city": "Uccle - Ukkel",
        "addr:postcode": "1180",
        "addr:street": "Chaussée d'Alsemberg - Alsembergsesteenweg",
        "amenity": "bicycle_rental",
        "brand": "Villo!",
        "capacity": "24",
        "name": "Gare de Calevoet - Kalevoet Station",
        "name:fr": "Gare de Calevoet",
        "name:nl": "Kalevoet Station",
        "network": "Villo!",
        "operator": "JCDecaux",
        "ref": "290"
      },
      "geometry": {
        "type": "Point",
        "coordinates": [
          4.3325367,
          50.7915028
        ]
      },
      "id": "node/5122442540"
    },
    {
      "type": "Feature",
      "properties": {
        "@id": "node/5137570109",
        "addr:city": "Uccle - Ukkel",
        "addr:postcode": "1180",
        "addr:street": "Rue Gatti de Gamond - Gatti de Gamondstraat",
        "amenity": "bicycle_rental",
        "brand": "Villo!",
        "capacity": "19",
        "name": "Decroly",
        "network": "Villo!",
        "operator": "JCDecaux",
        "ref": "291"
      },
      "geometry": {
        "type": "Point",
        "coordinates": [
          4.3278308,
          50.8046142
        ]
      },
      "id": "node/5137570109"
    },
    {
      "type": "Feature",
      "properties": {
        "@id": "node/5137593139",
        "addr:city": "Forest - Vorst",
        "addr:postcode": "1190",
        "addr:street": "Chaussée de Neerstalle - Neerstallesteenweg",
        "amenity": "bicycle_rental",
        "brand": "Villo!",
        "capacity": "25",
        "name": "Bempt",
        "network": "Villo!",
        "operator": "JCDecaux",
        "ref": "252"
      },
      "geometry": {
        "type": "Point",
        "coordinates": [
          4.3153138,
          50.8029014
        ]
      },
      "id": "node/5137593139"
    },
    {
      "type": "Feature",
      "properties": {
        "@id": "node/5137854874",
        "addr:city": "Forest - Vorst",
        "addr:postcode": "1190",
        "addr:street": "Avenue Wielemans Ceuppens - Wielemans Ceuppenslaan",
        "amenity": "bicycle_rental",
        "brand": "Villo!",
        "capacity": "25",
        "name": "Wiels",
        "network": "Villo!",
        "operator": "JCDecaux",
        "ref": "223"
      },
      "geometry": {
        "type": "Point",
        "coordinates": [
          4.3264666,
          50.8240755
        ]
      },
      "id": "node/5137854874"
    },
    {
      "type": "Feature",
      "properties": {
        "@id": "node/5168864963",
        "addr:city": "Auderghem - Oudergem",
        "addr:postcode": "1160",
        "addr:street": "Boulevard du Triomphe - Triomflaan",
        "amenity": "bicycle_rental",
        "brand": "Villo!",
        "capacity": "20",
        "name": "Triomphe - Triomf",
        "name:fr": "Triomphe",
        "name:nl": "Triomf",
        "network": "Villo!",
        "operator": "JCDecaux",
        "ref": "354"
      },
      "geometry": {
        "type": "Point",
        "coordinates": [
          4.4023243,
          50.8214632
        ]
      },
      "id": "node/5168864963"
    },
    {
      "type": "Feature",
      "properties": {
        "@id": "node/5174969868",
        "addr:city": "Bruxelles - Brussel",
        "addr:postcode": "1020",
        "addr:street": "Avenue Houba-de Strooper - Houba-de Strooperlaan",
        "amenity": "bicycle_rental",
        "brand": "Villo!",
        "capacity": "25",
        "name": "Stuyvenberg",
        "network": "Villo!",
        "operator": "JCDecaux",
        "ref": "194"
      },
      "geometry": {
        "type": "Point",
        "coordinates": [
          4.3421274,
          50.8858597
        ]
      },
      "id": "node/5174969868"
    },
    {
      "type": "Feature",
      "properties": {
        "@id": "node/5212429724",
        "amenity": "bicycle_rental",
        "brand": "Villo!",
        "capacity": "20",
        "name": "Geyskens",
        "network": "Villo!",
        "operator": "JCDecaux",
        "ref": "317"
      },
      "geometry": {
        "type": "Point",
        "coordinates": [
          4.4220554,
          50.8200435
        ]
      },
      "id": "node/5212429724"
    },
    {
      "type": "Feature",
      "properties": {
        "@id": "node/5212429725",
        "amenity": "bicycle_rental",
        "brand": "Villo!",
        "capacity": "25",
        "name": "Demey",
        "network": "Villo!",
        "operator": "JCDecaux",
        "ref": "313"
      },
      "geometry": {
        "type": "Point",
        "coordinates": [
          4.4170508,
          50.8149099
        ]
      },
      "id": "node/5212429725"
    },
    {
      "type": "Feature",
      "properties": {
        "@id": "node/5212429726",
        "amenity": "bicycle_rental",
        "brand": "Villo!",
        "capacity": "25",
        "name": "Hankar",
        "network": "Villo!",
        "operator": "JCDecaux",
        "ref": "325"
      },
      "geometry": {
        "type": "Point",
        "coordinates": [
          4.4068752,
          50.8214619
        ]
      },
      "id": "node/5212429726"
    },
    {
      "type": "Feature",
      "properties": {
        "@id": "node/5212429727",
        "amenity": "bicycle_rental",
        "brand": "Villo!",
        "capacity": "25",
        "name": "Thomas Balis",
        "network": "Villo!",
        "operator": "JCDecaux",
        "ref": "324"
      },
      "geometry": {
        "type": "Point",
        "coordinates": [
          4.4127843,
          50.8196473
        ]
      },
      "id": "node/5212429727"
    },
    {
      "type": "Feature",
      "properties": {
        "@id": "node/5338706957",
        "amenity": "bicycle_rental",
        "brand": "Villo!",
        "capacity": "30",
        "name": "Cimetière d'Ixelles - Begraafplaats van Elsene",
        "name:fr": "Cimetière d'Ixelles",
        "name:nl": "Begraafplaats van Elsene",
        "network": "Villo!",
        "operator": "JCDecaux",
        "ref": "117"
      },
      "geometry": {
        "type": "Point",
        "coordinates": [
          4.3910588,
          50.8160651
        ]
      },
      "id": "node/5338706957"
    },
    {
      "type": "Feature",
      "properties": {
        "@id": "node/5339603852",
        "amenity": "bicycle_rental"
      },
      "geometry": {
        "type": "Point",
        "coordinates": [
          4.4807453,
          50.7943499
        ]
      },
      "id": "node/5339603852"
    },
    {
      "type": "Feature",
      "properties": {
        "@id": "node/5400801438",
        "amenity": "bicycle_rental",
        "brand": "Villo!",
        "capacity": "25",
        "name": "Auberge de jeunesse",
        "network": "Villo!",
        "note": "Official name is only in French - no Dutch translation",
        "operator": "JCDecaux",
        "ref": "192"
      },
      "geometry": {
        "type": "Point",
        "coordinates": [
          4.3329266,
          50.8515946
        ]
      },
      "id": "node/5400801438"
    },
    {
      "type": "Feature",
      "properties": {
        "@id": "node/5572229935",
        "amenity": "bicycle_rental",
        "brand": "Villo!",
        "capacity": "20",
        "name": "Parc du Roi Baudouin - Boudewijnpark",
        "name:fr": "Parc du Roi Baudouin",
        "name:nl": "Boudewijnpark",
        "network": "Villo!",
        "operator": "JCDecaux",
        "ref": "322"
      },
      "geometry": {
        "type": "Point",
        "coordinates": [
          4.3164249,
          50.8896018
        ]
      },
      "id": "node/5572229935"
    },
    {
      "type": "Feature",
      "properties": {
        "@id": "node/5572229936",
        "amenity": "bicycle_rental",
        "brand": "Villo!",
        "capacity": "25",
        "name": "Heysel - Heizel",
        "name:fr": "Heysel",
        "name:nl": "Heizel",
        "network": "Villo!",
        "operator": "JCDecaux",
        "ref": "280"
      },
      "geometry": {
        "type": "Point",
        "coordinates": [
          4.3346988,
          50.8974955
        ]
      },
      "id": "node/5572229936"
    },
    {
      "type": "Feature",
      "properties": {
        "@id": "node/5572229937",
        "amenity": "bicycle_rental",
        "brand": "Villo!",
        "capacity": "24",
        "name": "Atomium",
        "network": "Villo!",
        "operator": "JCDecaux",
        "ref": "281"
      },
      "geometry": {
        "type": "Point",
        "coordinates": [
          4.3410685,
          50.8957143
        ]
      },
      "id": "node/5572229937"
    },
    {
      "type": "Feature",
      "properties": {
        "@id": "node/5572229938",
        "amenity": "bicycle_rental",
        "brand": "Villo!",
        "capacity": "25",
        "name": "Centenaire - Eeuwfeest",
        "name:fr": "Centenaire",
        "name:nl": "Eeuwfeest",
        "network": "Villo!",
        "operator": "JCDecaux",
        "ref": "282"
      },
      "geometry": {
        "type": "Point",
        "coordinates": [
          4.3448117,
          50.8909902
        ]
      },
      "id": "node/5572229938"
    },
    {
      "type": "Feature",
      "properties": {
        "@id": "node/5572229939",
        "addr:city": "Bruxelles - Brussel",
        "addr:postcode": "1120",
        "addr:street": "Chaussée de Vilvorde - Vilvoordsesteenweg",
        "amenity": "bicycle_rental",
        "brand": "Villo!",
        "capacity": "21",
        "name": "Van Praet",
        "network": "Villo!",
        "operator": "JCDecaux",
        "ref": "277"
      },
      "geometry": {
        "type": "Point",
        "coordinates": [
          4.3739236,
          50.8815945
        ]
      },
      "id": "node/5572229939"
    },
    {
      "type": "Feature",
      "properties": {
        "@id": "node/5572229940",
        "amenity": "bicycle_rental",
        "brand": "Villo!",
        "capacity": "24",
        "name": "Hansen-Soulie",
        "network": "Villo!",
        "operator": "JCDecaux",
        "ref": "348"
      },
      "geometry": {
        "type": "Point",
        "coordinates": [
          4.3987225,
          50.8309448
        ]
      },
      "id": "node/5572229940"
    },
    {
      "type": "Feature",
      "properties": {
        "@id": "node/5574585094",
        "amenity": "bicycle_rental",
        "brand": "Villo!",
        "capacity": "22",
        "name": "Gare Meiser - Meiser Station",
        "name:fr": "Gare Meiser",
        "name:nl": "Meiser Station",
        "network": "Villo!",
        "operator": "JCDecaux",
        "ref": "148"
      },
      "geometry": {
        "type": "Point",
        "coordinates": [
          4.3947614,
          50.8556136
        ]
      },
      "id": "node/5574585094"
    },
    {
      "type": "Feature",
      "properties": {
        "@id": "node/5581321232",
        "amenity": "bicycle_rental",
        "brand": "Villo!",
        "capacity": "24",
        "name": "Petite Suisse - Klein Zwitserland",
        "name:fr": "Petite Suisse",
        "name:nl": "Klein Zwitserland",
        "network": "Villo!",
        "operator": "JCDecaux",
        "ref": "115"
      },
      "geometry": {
        "type": "Point",
        "coordinates": [
          4.3853732,
          50.8177295
        ]
      },
      "id": "node/5581321232"
    },
    {
      "type": "Feature",
      "properties": {
        "@id": "node/5650397695",
        "addr:city": "Molenbeek-Saint-Jean - Sint-Jans-Molenbeek",
        "addr:postcode": "1080",
        "addr:street": "Rue de Birmingham - Birminghamstraat",
        "amenity": "bicycle_rental",
        "brand": "Villo!",
        "capacity": "25",
        "name": "Duchesse de Brabant - Hertogin van Brabant",
        "name:fr": "Duchesse de Brabant",
        "name:nl": "Hertogin van Brabant",
        "network": "Villo!",
        "operator": "JCDecaux",
        "ref": "94"
      },
      "geometry": {
        "type": "Point",
        "coordinates": [
          4.3291988,
          50.8492238
        ]
      },
      "id": "node/5650397695"
    },
    {
      "type": "Feature",
      "properties": {
        "@id": "node/5864461720",
        "amenity": "bicycle_rental",
        "brand": "Villo!",
        "capacity": "25",
        "name": "Maison communale de Schaerbeek - Schaarbeek gemeentehuis",
        "name:fr": "Maison communale de Schaerbeek",
        "name:nl": "Schaarbeek gemeentehuis",
        "network": "Villo!",
        "operator": "JCDecaux",
        "ref": "137"
      },
      "geometry": {
        "type": "Point",
        "coordinates": [
          4.3730303,
          50.8666788
        ]
      },
      "id": "node/5864461720"
    },
    {
      "type": "Feature",
      "properties": {
        "@id": "node/6019998029",
        "amenity": "bicycle_rental",
        "brand": "Villo!",
        "capacity": "25",
        "name": "Les Marronniers",
        "network": "Villo!",
        "note": "Official name is only in French - no Dutch translation",
        "operator": "JCDecaux",
        "ref": "155"
      },
      "geometry": {
        "type": "Point",
        "coordinates": [
          4.3989576,
          50.8250254
        ]
      },
      "id": "node/6019998029"
    },
    {
      "type": "Feature",
      "properties": {
        "@id": "node/6109156919",
        "amenity": "bicycle_rental",
        "brand": "Villo!",
        "capacity": "40",
        "name": "Cortenbergh - Kortenberg",
        "name:fr": "Cortenbergh",
        "name:nl": "Kortenberg",
        "network": "Villo!",
        "operator": "JCDecaux",
        "ref": "62"
      },
      "geometry": {
        "type": "Point",
        "coordinates": [
          4.3842374,
          50.8415913
        ]
      },
      "id": "node/6109156919"
    },
    {
      "type": "Feature",
      "properties": {
        "@id": "node/6153995028",
        "amenity": "bicycle_rental",
        "brand": "Villo!",
        "capacity": "24",
        "name": "Azalées - Azalea",
        "name:fr": "Azalées",
        "name:nl": "Azalea",
        "network": "Villo!",
        "operator": "JCDecaux",
        "ref": "140"
      },
      "geometry": {
        "type": "Point",
        "coordinates": [
          4.3811901,
          50.8628591
        ]
      },
      "id": "node/6153995028"
    },
    {
      "type": "Feature",
      "properties": {
        "@id": "node/6185603854",
        "amenity": "bicycle_rental",
        "brand": "Villo!",
        "capacity": "25",
        "name": "Aeropolis",
        "network": "Villo!",
        "operator": "JCDecaux",
        "ref": "172"
      },
      "geometry": {
        "type": "Point",
        "coordinates": [
          4.3880797,
          50.869682
        ]
      },
      "id": "node/6185603854"
    },
    {
      "type": "Feature",
      "properties": {
        "@id": "node/6224330950",
        "addr:city": "Bruxelles - Brussel",
        "addr:postcode": "1000",
        "addr:street": "Chaussée d'Anvers - Antwerpsesteenweg",
        "amenity": "bicycle_rental",
        "brand": "Villo!",
        "capacity": "24",
        "name": "Saint-Roch - Sint-Rochus",
        "name:fr": "Saint-Roch",
        "name:nl": "Sint-Rochus",
        "network": "Villo!",
        "operator": "JCDecaux",
        "ref": "41"
      },
      "geometry": {
        "type": "Point",
        "coordinates": [
          4.3550008,
          50.8594917
        ]
      },
      "id": "node/6224330950"
    },
    {
      "type": "Feature",
      "properties": {
        "@id": "node/6273111691",
        "addr:city": "Bruxelles - Brussel",
        "addr:postcode": "1040",
        "addr:street": "Rue de la Loi - Wetstraat",
        "amenity": "bicycle_rental",
        "brand": "Villo!",
        "capacity": "40",
        "name": "Schuman",
        "network": "Villo!",
        "operator": "JCDecaux",
        "ref": "66"
      },
      "geometry": {
        "type": "Point",
        "coordinates": [
          4.3800249,
          50.843289
        ]
      },
      "id": "node/6273111691"
    },
    {
      "type": "Feature",
      "properties": {
        "@id": "node/6349806089",
        "addr:city": "Schaerbeek - Schaarbeek",
        "addr:postcode": "1030",
        "addr:street": "Boulevard Lambermont - Lambermontlaan",
        "amenity": "bicycle_rental",
        "brand": "Villo!",
        "capacity": "24",
        "name": "Héliotropes - Heliotropen",
        "name:fr": "Héliotropes",
        "name:nl": "Heliotropen",
        "network": "Villo!",
        "operator": "JCDecaux",
        "ref": "157"
      },
      "geometry": {
        "type": "Point",
        "coordinates": [
          4.3862711,
          50.863422
        ]
      },
      "id": "node/6349806089"
    },
    {
      "type": "Feature",
      "properties": {
        "@id": "node/6349806092",
        "amenity": "bicycle_rental",
        "brand": "Villo!",
        "capacity": "25",
        "name": "Kennis",
        "network": "Villo!",
        "official_name": "KENNIS - BOULEVARD LAMBERMONT (20 M APRES 284)/LAMBERMONTLAAN (20 M NA N° 284)",
        "operator": "JCDecaux",
        "ref": "164"
      },
      "geometry": {
        "type": "Point",
        "coordinates": [
          4.3858388,
          50.867496
        ]
      },
      "id": "node/6349806092"
    },
    {
      "type": "Feature",
      "properties": {
        "@id": "node/6351042774",
        "amenity": "bicycle_rental",
        "brand": "Villo!",
        "capacity": "20",
        "name": "Riga",
        "network": "Villo!",
        "official_name": "RIGA - SQUARE FRANCOIS RIGA / FRANCOIS RIGASQUARE",
        "operator": "JCDecaux",
        "ref": "170"
      },
      "geometry": {
        "type": "Point",
        "coordinates": [
          4.3853742,
          50.8745461
        ]
      },
      "id": "node/6351042774"
    },
    {
      "type": "Feature",
      "properties": {
        "@id": "node/6352331155",
        "addr:number": "121",
        "addr:street": "Rue Antoine Dansaert - Antoine Dansaertstraat",
        "amenity": "bicycle_rental",
        "name": "Swapfiets",
        "network": "Swapfiets",
        "opening_hours": "Mo-Fr 10:00-20:00; Sa-Su12:00-18:00",
        "website": "http://Swapfiets.be"
      },
      "geometry": {
        "type": "Point",
        "coordinates": [
          4.3444031,
          50.8517527
        ]
      },
      "id": "node/6352331155"
    },
    {
      "type": "Feature",
      "properties": {
        "@id": "node/6482181260",
        "addr:city": "Schaerbeek - Schaarbeek",
        "addr:postcode": "1030",
        "addr:street": "Place du Pavillion - Paviljoenplein",
        "amenity": "bicycle_rental",
        "brand": "Villo!",
        "capacity": "24",
        "name": "Pavillon - Paviljoen",
        "name:fr": "Pavillon",
        "name:nl": "Paviljoen",
        "network": "Villo!",
        "operator": "JCDecaux",
        "ref": "136"
      },
      "geometry": {
        "type": "Point",
        "coordinates": [
          4.3716055,
          50.8699404
        ]
      },
      "id": "node/6482181260"
    },
    {
      "type": "Feature",
      "properties": {
        "@id": "node/6515974787",
        "addr:city": "Evere",
        "addr:postcode": "1140",
        "addr:street": "Avenue des Loisirs - Vrijetijdslaan",
        "amenity": "bicycle_rental",
        "brand": "Villo!",
        "capacity": "25",
        "name": "Evere Shopping",
        "network": "Villo!",
        "operator": "JCDecaux",
        "ref": "265"
      },
      "geometry": {
        "type": "Point",
        "coordinates": [
          4.4030829,
          50.8673914
        ]
      },
      "id": "node/6515974787"
    },
    {
      "type": "Feature",
      "properties": {
        "@id": "node/6533912336",
        "addr:city": "Berchem-Sainte-Agathe - Sint-Agatha-Berchem",
        "addr:postcode": "1082",
        "addr:street": "Rue Jean-Baptiste Vandendriesch - Jean Baptiste Vandendrieschstraat",
        "amenity": "bicycle_rental",
        "brand": "Villo!",
        "capacity": "20",
        "name": "Vandendriesch",
        "network": "Villo!",
        "operator": "JCDecaux",
        "ref": "343"
      },
      "geometry": {
        "type": "Point",
        "coordinates": [
          4.2927539,
          50.8617736
        ]
      },
      "id": "node/6533912336"
    },
    {
      "type": "Feature",
      "properties": {
        "@id": "node/6558641626",
        "addr:city": "Molenbeek-Saint-Jean - Sint-Jans-Molenbeek",
        "addr:postcode": "1080",
        "addr:street": "Avenue Brigade Piron - Brigade Pironlaan",
        "amenity": "bicycle_rental",
        "brand": "Villo!",
        "capacity": "21",
        "name": "Mennekens",
        "network": "Villo!",
        "operator": "JCDecaux",
        "ref": "174"
      },
      "geometry": {
        "type": "Point",
        "coordinates": [
          4.3163621,
          50.8539494
        ]
      },
      "id": "node/6558641626"
    },
    {
      "type": "Feature",
      "properties": {
        "@id": "node/6585948961",
        "amenity": "bicycle_rental",
        "brand": "Villo!",
        "capacity": "22",
        "name": "Diamant",
        "network": "Villo!",
        "operator": "JCDecaux",
        "ref": "178"
      },
      "geometry": {
        "type": "Point",
        "coordinates": [
          4.4023134,
          50.850493
        ]
      },
      "id": "node/6585948961"
    },
    {
      "type": "Feature",
      "properties": {
        "@id": "node/6690895403",
        "amenity": "bicycle_rental",
        "brand": "Villo!",
        "capacity": "23",
        "name": "Rouge-Cloître - Rood-Klooster",
        "name:fr": "Rouge-Cloître",
        "name:nl": "Rood-Klooster",
        "network": "Villo!",
        "operator": "JCDecaux",
        "ref": "352"
      },
      "geometry": {
        "type": "Point",
        "coordinates": [
          4.4431681,
          50.8140735
        ]
      },
      "id": "node/6690895403"
    },
    {
      "type": "Feature",
      "properties": {
        "@id": "node/6708406152",
        "amenity": "bicycle_rental",
        "brand": "Villo!",
        "capacity": "25",
        "name": "Square du Centenaire",
        "network": "Villo!",
        "note": "Official name only in French - Villo! did not provide a proper Dutch name",
        "operator": "JCDecaux",
        "ref": "309"
      },
      "geometry": {
        "type": "Point",
        "coordinates": [
          4.3182561,
          50.8754859
        ]
      },
      "id": "node/6708406152"
    },
    {
      "type": "Feature",
      "properties": {
        "@id": "node/6715583406",
        "amenity": "bicycle_rental",
        "brand": "Villo!",
        "capacity": "25",
        "name": "Saint-Job - Sint-Job",
        "name:fr": "Saint-Job",
        "name:nl": "Sint-Job",
        "network": "Villo!",
        "operator": "JCDecaux",
        "ref": "249"
      },
      "geometry": {
        "type": "Point",
        "coordinates": [
          4.3663987,
          50.7941672
        ]
      },
      "id": "node/6715583406"
    },
    {
      "type": "Feature",
      "properties": {
        "@id": "node/6715598493",
        "amenity": "bicycle_rental",
        "brand": "Villo!",
        "capacity": "25",
        "name": "Sainte-Elisabeth",
        "network": "Villo!",
        "note": "Official name is only in French - no Dutch translation",
        "operator": "JCDecaux",
        "ref": "250"
      },
      "geometry": {
        "type": "Point",
        "coordinates": [
          4.3719343,
          50.8051623
        ]
      },
      "id": "node/6715598493"
    },
    {
      "type": "Feature",
      "properties": {
        "@id": "node/6715601242",
        "amenity": "bicycle_rental",
        "brand": "Villo!",
        "capacity": "19",
        "name": "Bois de la Cambre",
        "network": "Villo!",
        "note": "Official name is only in French - no Dutch translation",
        "operator": "JCDecaux",
        "ref": "244"
      },
      "geometry": {
        "type": "Point",
        "coordinates": [
          4.3682187,
          50.8122337
        ]
      },
      "id": "node/6715601242"
    },
    {
      "type": "Feature",
      "properties": {
        "@id": "node/6718512312",
        "amenity": "bicycle_rental",
        "brand": "Villo!",
        "capacity": "25",
        "name": "Hôpital Français - Frans Hospitaal",
        "name:fr": "Hôpital Français",
        "name:nl": "Frans Hospitaal",
        "network": "Villo!",
        "operator": "JCDecaux",
        "ref": "168"
      },
      "geometry": {
        "type": "Point",
        "coordinates": [
          4.3032782,
          50.8663795
        ]
      },
      "id": "node/6718512312"
    },
    {
      "type": "Feature",
      "properties": {
        "@id": "node/6718540688",
        "amenity": "bicycle_rental",
        "brand": "Villo!",
        "capacity": "25",
        "name": "Zellik",
        "network": "Villo!",
        "operator": "JCDecaux",
        "ref": "101"
      },
      "geometry": {
        "type": "Point",
        "coordinates": [
          4.2921205,
          50.8692313
        ]
      },
      "id": "node/6718540688"
    },
    {
      "type": "Feature",
      "properties": {
        "@id": "node/6718556463",
        "amenity": "bicycle_rental",
        "brand": "Villo!",
        "capacity": "25",
        "name": "Place Marguerite d'Autriche - Margaretha van Oostenrijkplein",
        "name:fr": "Place Marguerite d'Autriche",
        "name:nl": "Margaretha van Oostenrijkplein",
        "network": "Villo!",
        "operator": "JCDecaux",
        "ref": "257"
      },
      "geometry": {
        "type": "Point",
        "coordinates": [
          4.2981758,
          50.8722283
        ]
      },
      "id": "node/6718556463"
    },
    {
      "type": "Feature",
      "properties": {
        "@id": "node/6718559839",
        "amenity": "bicycle_rental",
        "brand": "Villo!",
        "capacity": "25",
        "name": "Schweitzer",
        "network": "Villo!",
        "operator": "JCDecaux",
        "ref": "118"
      },
      "geometry": {
        "type": "Point",
        "coordinates": [
          4.2979358,
          50.8644803
        ]
      },
      "id": "node/6718559839"
    },
    {
      "type": "Feature",
      "properties": {
        "@id": "node/6718564856",
        "amenity": "bicycle_rental",
        "brand": "Villo!",
        "capacity": "20",
        "name": "Gare Berchem Ste-Agathe - Sint-Agata-Berchem station",
        "name:fr": "Gare Berchem Ste-Agathe",
        "name:nl": "Sint-Agata-Berchem station",
        "network": "Villo!",
        "operator": "JCDecaux",
        "ref": "362"
      },
      "geometry": {
        "type": "Point",
        "coordinates": [
          4.2902126,
          50.8725447
        ]
      },
      "id": "node/6718564856"
    },
    {
      "type": "Feature",
      "properties": {
        "@id": "node/6718589389",
        "amenity": "bicycle_rental",
        "brand": "Villo!",
        "capacity": "20",
        "name": "Maison communale de Berchem Ste-Agathe - Gemeentehuis Sint-Agata-Berchem",
        "name:fr": "Maison communale de Berchem Ste-Agathe",
        "name:nl": "Gemeentehuis Sint-Agata-Berchem",
        "network": "Villo!",
        "operator": "JCDecaux",
        "ref": "342"
      },
      "geometry": {
        "type": "Point",
        "coordinates": [
          4.2942824,
          50.8647659
        ]
      },
      "id": "node/6718589389"
    },
    {
      "type": "Feature",
      "properties": {
        "@id": "node/6718589390",
        "amenity": "bicycle_rental",
        "brand": "Villo!",
        "capacity": "20",
        "name": "Cimetière - Kerkhof",
        "name:fr": "Cimetière",
        "name:nl": "Kerkhof",
        "network": "Villo!",
        "operator": "JCDecaux",
        "ref": "98"
      },
      "geometry": {
        "type": "Point",
        "coordinates": [
          4.3122561,
          50.8590083
        ]
      },
      "id": "node/6718589390"
    },
    {
      "type": "Feature",
      "properties": {
        "@id": "node/6718620592",
        "amenity": "bicycle_rental",
        "brand": "Villo!",
        "capacity": "15",
        "name": "Corhay",
        "network": "Villo!",
        "operator": "JCDecaux",
        "ref": "274"
      },
      "geometry": {
        "type": "Point",
        "coordinates": [
          4.3076813,
          50.8600084
        ]
      },
      "id": "node/6718620592"
    },
    {
      "type": "Feature",
      "properties": {
        "@id": "node/6718623991",
        "amenity": "bicycle_rental",
        "brand": "Villo!",
        "capacity": "20",
        "name": "Genot",
        "network": "Villo!",
        "operator": "JCDecaux",
        "ref": "186"
      },
      "geometry": {
        "type": "Point",
        "coordinates": [
          4.3022406,
          50.8617489
        ]
      },
      "id": "node/6718623991"
    },
    {
      "type": "Feature",
      "properties": {
        "@id": "node/6718626840",
        "amenity": "bicycle_rental",
        "brand": "Villo!",
        "capacity": "24",
        "name": "Scheutbos",
        "network": "Villo!",
        "operator": "JCDecaux",
        "ref": "272"
      },
      "geometry": {
        "type": "Point",
        "coordinates": [
          4.2998044,
          50.8510437
        ]
      },
      "id": "node/6718626840"
    },
    {
      "type": "Feature",
      "properties": {
        "@id": "node/6735350757",
        "amenity": "bicycle_rental",
        "brand": "Villo!",
        "capacity": "25",
        "name": "Porte d'Anderlecht",
        "network": "Villo!",
        "note": "Official name is only in French - no Dutch translation",
        "operator": "JCDecaux",
        "ref": "25"
      },
      "geometry": {
        "type": "Point",
        "coordinates": [
          4.3388711,
          50.8457447
        ]
      },
      "id": "node/6735350757"
    },
    {
      "type": "Feature",
      "properties": {
        "@id": "node/6735454845",
        "amenity": "bicycle_rental",
        "brand": "Villo!",
        "capacity": "25",
        "name": "Croix de Guerres - Oorlogskruisen",
        "name:fr": "Croix de Guerres",
        "name:nl": "Oorlogskruisen",
        "network": "Villo!",
        "operator": "JCDecaux",
        "ref": "276"
      },
      "geometry": {
        "type": "Point",
        "coordinates": [
          4.3800861,
          50.8894612
        ]
      },
      "id": "node/6735454845"
    },
    {
      "type": "Feature",
      "properties": {
        "@id": "node/6735487454",
        "amenity": "bicycle_rental",
        "brand": "Villo!",
        "capacity": "24",
        "name": "Araucaria",
        "network": "Villo!",
        "operator": "JCDecaux",
        "ref": "304"
      },
      "geometry": {
        "type": "Point",
        "coordinates": [
          4.3632593,
          50.8935908
        ]
      },
      "id": "node/6735487454"
    },
    {
      "type": "Feature",
      "properties": {
        "@id": "node/6735488594",
        "amenity": "bicycle_rental",
        "brand": "Villo!",
        "capacity": "25",
        "name": "Peter Benoit",
        "network": "Villo!",
        "operator": "JCDecaux",
        "ref": "305"
      },
      "geometry": {
        "type": "Point",
        "coordinates": [
          4.3880462,
          50.8955518
        ]
      },
      "id": "node/6735488594"
    },
    {
      "type": "Feature",
      "properties": {
        "@id": "node/6735496846",
        "amenity": "bicycle_rental",
        "brand": "Villo!",
        "capacity": "14",
        "name": "Piscine - Zwembad",
        "name:fr": "Piscine",
        "name:nl": "Zwembad",
        "network": "Villo!",
        "operator": "JCDecaux",
        "ref": "283"
      },
      "geometry": {
        "type": "Point",
        "coordinates": [
          4.3771226,
          50.8931563
        ]
      },
      "id": "node/6735496846"
    },
    {
      "type": "Feature",
      "properties": {
        "@id": "node/6735497912",
        "amenity": "bicycle_rental",
        "brand": "Villo!",
        "capacity": "22",
        "name": "Hembeek",
        "network": "Villo!",
        "operator": "JCDecaux",
        "ref": "306"
      },
      "geometry": {
        "type": "Point",
        "coordinates": [
          4.3750184,
          50.8891624
        ]
      },
      "id": "node/6735497912"
    },
    {
      "type": "Feature",
      "properties": {
        "@id": "node/6735984483",
        "amenity": "bicycle_rental",
        "brand": "Villo!",
        "capacity": "25",
        "name": "Houba Brugmann",
        "network": "Villo!",
        "operator": "JCDecaux",
        "ref": "279"
      },
      "geometry": {
        "type": "Point",
        "coordinates": [
          4.3369608,
          50.8902162
        ]
      },
      "id": "node/6735984483"
    },
    {
      "type": "Feature",
      "properties": {
        "@id": "node/6736054160",
        "amenity": "bicycle_rental",
        "brand": "Villo!",
        "capacity": "24",
        "name": "Stade - Stadium",
        "name:fr": "Stade",
        "name:nl": "Stadium",
        "network": "Villo!",
        "operator": "JCDecaux",
        "ref": "278"
      },
      "geometry": {
        "type": "Point",
        "coordinates": [
          4.3320454,
          50.8939253
        ]
      },
      "id": "node/6736054160"
    },
    {
      "type": "Feature",
      "properties": {
        "@id": "node/6766045368",
        "amenity": "bicycle_rental",
        "brand": "Villo!",
        "capacity": "20",
        "name": "Loi - Wet",
        "name:fr": "Loi",
        "name:nl": "Wet",
        "network": "Villo!",
        "operator": "JCDecaux",
        "ref": "79"
      },
      "geometry": {
        "type": "Point",
        "coordinates": [
          4.3747045,
          50.8441824
        ]
      },
      "id": "node/6766045368"
    },
    {
      "type": "Feature",
      "properties": {
        "@id": "node/6766195083",
        "amenity": "bicycle_rental",
        "brand": "Villo!",
        "capacity": "20",
        "name": "Saint-Vincent - Sint-Vincentius",
        "name:fr": "Saint-Vincent",
        "name:nl": "Sint-Vincentius",
        "network": "Villo!",
        "operator": "JCDecaux",
        "ref": "310"
      },
      "geometry": {
        "type": "Point",
        "coordinates": [
          4.4005359,
          50.8799302
        ]
      },
      "id": "node/6766195083"
    },
    {
      "type": "Feature",
      "properties": {
        "@id": "node/6766254360",
        "amenity": "bicycle_rental",
        "brand": "Villo!",
        "capacity": "20",
        "name": "Stockel - Stokkel",
        "name:fr": "Stockel",
        "name:nl": "Stokkel",
        "network": "Villo!",
        "operator": "JCDecaux",
        "ref": "360"
      },
      "geometry": {
        "type": "Point",
        "coordinates": [
          4.4655043,
          50.8415939
        ]
      },
      "id": "node/6766254360"
    },
    {
      "type": "Feature",
      "properties": {
        "@id": "node/6768892780",
        "amenity": "bicycle_rental",
        "brand": "Villo!",
        "capacity": "20",
        "name": "Rodin",
        "network": "Villo!",
        "operator": "JCDecaux",
        "ref": "110"
      },
      "geometry": {
        "type": "Point",
        "coordinates": [
          4.3822905,
          50.8269852
        ]
      },
      "id": "node/6768892780"
    },
    {
      "type": "Feature",
      "properties": {
        "@id": "node/6773985972",
        "amenity": "bicycle_rental",
        "brand": "Villo!",
        "name": "Charles Graux",
        "network": "Villo!",
        "operator": "JCDecaux",
        "ref": "124"
      },
      "geometry": {
        "type": "Point",
        "coordinates": [
          4.3635796,
          50.8182501
        ]
      },
      "id": "node/6773985972"
    },
    {
      "type": "Feature",
      "properties": {
        "@id": "node/6774007597",
        "amenity": "bicycle_rental",
        "brand": "Villo!",
        "capacity": "25",
        "name": "Châtelain - Kastelein",
        "name:fr": "Châtelain",
        "name:nl": "Kastelein",
        "network": "Villo!",
        "operator": "JCDecaux",
        "ref": "109"
      },
      "geometry": {
        "type": "Point",
        "coordinates": [
          4.3598684,
          50.8240512
        ]
      },
      "id": "node/6774007597"
    },
    {
      "type": "Feature",
      "properties": {
        "@id": "node/6774013901",
        "amenity": "bicycle_rental",
        "brand": "Villo!",
        "capacity": "10",
        "name": "Page - Edelknaap",
        "name:fr": "Page",
        "name:nl": "Edelknaap",
        "network": "Villo!",
        "operator": "JCDecaux",
        "ref": "112"
      },
      "geometry": {
        "type": "Point",
        "coordinates": [
          4.3565603,
          50.8215572
        ]
      },
      "id": "node/6774013901"
    },
    {
      "type": "Feature",
      "properties": {
        "@id": "node/6774242142",
        "amenity": "bicycle_rental",
        "brand": "Villo!",
        "capacity": "20",
        "name": "Paola",
        "network": "Villo!",
        "operator": "JCDecaux",
        "ref": "251"
      },
      "geometry": {
        "type": "Point",
        "coordinates": [
          4.3268461,
          50.8004603
        ]
      },
      "id": "node/6774242142"
    },
    {
      "type": "Feature",
      "properties": {
        "@id": "node/6774271796",
        "amenity": "bicycle_rental",
        "brand": "Villo!",
        "capacity": "19",
        "name": "Gatti de Gamond",
        "network": "Villo!",
        "operator": "JCDecaux",
        "ref": "246"
      },
      "geometry": {
        "type": "Point",
        "coordinates": [
          4.3282976,
          50.7963944
        ]
      },
      "id": "node/6774271796"
    },
    {
      "type": "Feature",
      "properties": {
        "@id": "node/6774298213",
        "amenity": "bicycle_rental",
        "brand": "Villo!",
        "capacity": "21",
        "name": "Altitude Cent - Hoogte Honderd",
        "name:fr": "Altitude Cent",
        "name:nl": "Hoogte Honderd",
        "network": "Villo!",
        "operator": "JCDecaux",
        "ref": "228"
      },
      "geometry": {
        "type": "Point",
        "coordinates": [
          4.3364461,
          50.8164127
        ]
      },
      "id": "node/6774298213"
    },
    {
      "type": "Feature",
      "properties": {
        "@id": "node/6774318188",
        "amenity": "bicycle_rental",
        "brand": "Villo!",
        "capacity": "25",
        "name": "Square Georges Marlow - Georges Marlowsquare",
        "name:fr": "Square Georges Marlow",
        "name:nl": "Georges Marlowsquare",
        "network": "Villo!",
        "operator": "JCDecaux",
        "ref": "289"
      },
      "geometry": {
        "type": "Point",
        "coordinates": [
          4.3407391,
          50.8018095
        ]
      },
      "id": "node/6774318188"
    },
    {
      "type": "Feature",
      "properties": {
        "@id": "node/6774323662",
        "amenity": "bicycle_rental",
        "brand": "Villo!",
        "capacity": "19",
        "name": "Rittweger",
        "network": "Villo!",
        "operator": "JCDecaux",
        "ref": "292"
      },
      "geometry": {
        "type": "Point",
        "coordinates": [
          4.3360913,
          50.7977262
        ]
      },
      "id": "node/6774323662"
    },
    {
      "type": "Feature",
      "properties": {
        "@id": "node/6774337015",
        "amenity": "bicycle_rental",
        "brand": "Villo!",
        "capacity": "20",
        "name": "Bens",
        "network": "Villo!",
        "operator": "JCDecaux",
        "ref": "286"
      },
      "geometry": {
        "type": "Point",
        "coordinates": [
          4.3367838,
          50.8076415
        ]
      },
      "id": "node/6774337015"
    },
    {
      "type": "Feature",
      "properties": {
        "@id": "node/6774353885",
        "amenity": "bicycle_rental",
        "brand": "Villo!",
        "name": "Floréal",
        "network": "Villo!",
        "operator": "JCDecaux",
        "ref": "287"
      },
      "geometry": {
        "type": "Point",
        "coordinates": [
          4.3453934,
          50.8094586
        ]
      },
      "id": "node/6774353885"
    },
    {
      "type": "Feature",
      "properties": {
        "@id": "node/6774354924",
        "amenity": "bicycle_rental",
        "brand": "Villo!",
        "capacity": "24",
        "name": "Coghen",
        "network": "Villo!",
        "operator": "JCDecaux",
        "ref": "285"
      },
      "geometry": {
        "type": "Point",
        "coordinates": [
          4.3389948,
          50.8133291
        ]
      },
      "id": "node/6774354924"
    },
    {
      "type": "Feature",
      "properties": {
        "@id": "node/6775831694",
        "amenity": "bicycle_rental",
        "brand": "Villo!",
        "capacity": "19",
        "name": "Sacré Cœur Auderghem - Heilige Hart Ouderghem",
        "name:fr": "Sacré Cœur Auderghem",
        "name:nl": "Heilige Hart Ouderghem",
        "network": "Villo!",
        "operator": "JCDecaux",
        "ref": "315"
      },
      "geometry": {
        "type": "Point",
        "coordinates": [
          4.4358701,
          50.8102799
        ]
      },
      "id": "node/6775831694"
    },
    {
      "type": "Feature",
      "properties": {
        "@id": "node/6775836142",
        "amenity": "bicycle_rental",
        "brand": "Villo!",
        "capacity": "25",
        "name": "Coin du Balai",
        "network": "Villo!",
        "note": "Official name is only in French - no Dutch translation",
        "operator": "JCDecaux",
        "ref": "295"
      },
      "geometry": {
        "type": "Point",
        "coordinates": [
          4.4185266,
          50.7936726
        ]
      },
      "id": "node/6775836142"
    },
    {
      "type": "Feature",
      "properties": {
        "@id": "node/6776968542",
        "amenity": "bicycle_rental",
        "brand": "Villo!",
        "capacity": "25",
        "name": "Gare de Boitsfort - Bosvoorde Station",
        "name:fr": "Gare de Boitsfort",
        "name:nl": "Bosvoorde Station",
        "network": "Villo!",
        "operator": "JCDecaux",
        "ref": "296"
      },
      "geometry": {
        "type": "Point",
        "coordinates": [
          4.4080948,
          50.7952189
        ]
      },
      "id": "node/6776968542"
    },
    {
      "type": "Feature",
      "properties": {
        "@id": "node/6776997766",
        "amenity": "bicycle_rental",
        "brand": "Villo!",
        "capacity": "18",
        "name": "3 Tilleuls",
        "network": "Villo!",
        "note": "Official name is only in French - no Dutch translation",
        "operator": "JCDecaux",
        "ref": "345"
      },
      "geometry": {
        "type": "Point",
        "coordinates": [
          4.4118352,
          50.8026927
        ]
      },
      "id": "node/6776997766"
    },
    {
      "type": "Feature",
      "properties": {
        "@id": "node/6777000768",
        "amenity": "bicycle_rental",
        "brand": "Villo!",
        "capacity": "25",
        "name": "Gare de Boondael - Boondaelstation",
        "name:fr": "Gare de Boondael",
        "name:nl": "Boondaelstation",
        "network": "Villo!",
        "note": "Contrary to railway and tram stops, NL spelling is Boondael, not Boondaal",
        "operator": "JCDecaux",
        "ref": "300"
      },
      "geometry": {
        "type": "Point",
        "coordinates": [
          4.3928856,
          50.801401
        ]
      },
      "id": "node/6777000768"
    },
    {
      "type": "Feature",
      "properties": {
        "@id": "node/6777037230",
        "amenity": "bicycle_rental",
        "brand": "Villo!",
        "name": "Saisons - Jaargetijden",
        "name:fr": "Saisons",
        "name:nl": "Jaargetijden",
        "network": "Villo!",
        "operator": "JCDecaux",
        "ref": "114"
      },
      "geometry": {
        "type": "Point",
        "coordinates": [
          4.3854279,
          50.8203293
        ]
      },
      "id": "node/6777037230"
    },
    {
      "type": "Feature",
      "properties": {
        "@id": "node/6777050118",
        "amenity": "bicycle_rental",
        "brand": "Villo!",
        "capacity": "18",
        "name": "Saint-Adrien",
        "network": "Villo!",
        "note": "Official name is only in French - no Dutch translation",
        "operator": "JCDecaux",
        "ref": "299"
      },
      "geometry": {
        "type": "Point",
        "coordinates": [
          4.3865099,
          50.8094105
        ]
      },
      "id": "node/6777050118"
    },
    {
      "type": "Feature",
      "properties": {
        "@id": "node/6777073396",
        "amenity": "bicycle_rental",
        "brand": "Villo!",
        "capacity": "23",
        "name": "Tomberg",
        "network": "Villo!",
        "operator": "JCDecaux",
        "ref": "340"
      },
      "geometry": {
        "type": "Point",
        "coordinates": [
          4.4253367,
          50.8435959
        ]
      },
      "id": "node/6777073396"
    },
    {
      "type": "Feature",
      "properties": {
        "@id": "node/6777095520",
        "amenity": "bicycle_rental",
        "brand": "Villo!",
        "capacity": "29",
        "name": "Georges Eekhoud",
        "network": "Villo!",
        "operator": "JCDecaux",
        "ref": "169"
      },
      "geometry": {
        "type": "Point",
        "coordinates": [
          4.3875712,
          50.8771244
        ]
      },
      "id": "node/6777095520"
    },
    {
      "type": "Feature",
      "properties": {
        "@id": "node/6777132632",
        "amenity": "bicycle_rental",
        "brand": "Villo!",
        "capacity": "25",
        "name": "Miroir - Spiegel",
        "name:fr": "Miroir",
        "name:nl": "Spiegel",
        "network": "Villo!",
        "operator": "JCDecaux",
        "ref": "87"
      },
      "geometry": {
        "type": "Point",
        "coordinates": [
          4.3238545,
          50.8713477
        ]
      },
      "id": "node/6777132632"
    },
    {
      "type": "Feature",
      "properties": {
        "@id": "node/6777138172",
        "amenity": "bicycle_rental",
        "brand": "Villo!",
        "capacity": "22",
        "name": "Basilique - Basiliek",
        "name:fr": "Basilique",
        "name:nl": "Basiliek",
        "network": "Villo!",
        "operator": "JCDecaux",
        "ref": "254"
      },
      "geometry": {
        "type": "Point",
        "coordinates": [
          4.3202515,
          50.8673993
        ]
      },
      "id": "node/6777138172"
    },
    {
      "type": "Feature",
      "properties": {
        "@id": "node/6777145015",
        "amenity": "bicycle_rental",
        "brand": "Villo!",
        "capacity": "24",
        "name": "Sacré-Cœur de Ganshoren - Heilige Hart van Ganshoren",
        "name:fr": "Sacré-Cœur de Ganshoren",
        "name:nl": "Heilige Hart van Ganshoren",
        "network": "Villo!",
        "operator": "JCDecaux",
        "ref": "255"
      },
      "geometry": {
        "type": "Point",
        "coordinates": [
          4.3140287,
          50.8680286
        ]
      },
      "id": "node/6777145015"
    },
    {
      "type": "Feature",
      "properties": {
        "@id": "node/6777154580",
        "amenity": "bicycle_rental",
        "brand": "Villo!",
        "capacity": "22",
        "name": "Charles V - Karel V",
        "name:fr": "Charles V",
        "name:nl": "Karel V",
        "network": "Villo!",
        "operator": "JCDecaux",
        "ref": "167"
      },
      "geometry": {
        "type": "Point",
        "coordinates": [
          4.3097278,
          50.8690183
        ]
      },
      "id": "node/6777154580"
    },
    {
      "type": "Feature",
      "properties": {
        "@id": "node/6777156435",
        "amenity": "bicycle_rental",
        "brand": "Villo!",
        "capacity": "25",
        "name": "Hall des Sports",
        "network": "Villo!",
        "note": "Official name is only in French - no Dutch translation",
        "operator": "JCDecaux",
        "ref": "298"
      },
      "geometry": {
        "type": "Point",
        "coordinates": [
          4.3013216,
          50.8771034
        ]
      },
      "id": "node/6777156435"
    },
    {
      "type": "Feature",
      "properties": {
        "@id": "node/6777158397",
        "amenity": "bicycle_rental",
        "brand": "Villo!",
        "capacity": "24",
        "name": "Van Overbeke",
        "network": "Villo!",
        "operator": "JCDecaux",
        "ref": "256"
      },
      "geometry": {
        "type": "Point",
        "coordinates": [
          4.3090242,
          50.8747148
        ]
      },
      "id": "node/6777158397"
    },
    {
      "type": "Feature",
      "properties": {
        "@id": "node/6779067770",
        "alt_name": "Beekkant",
        "amenity": "bicycle_rental",
        "brand": "Villo!",
        "capacity": "25",
        "name": "Beekant",
        "network": "Villo!",
        "note": "Official name set by JCDecaux is \"Beekant\" (only one \"k\") contrary to the metro station, named \"Beekkant\"",
        "operator": "JCDecaux",
        "ref": "175"
      },
      "geometry": {
        "type": "Point",
        "coordinates": [
          4.3229428,
          50.8541503
        ]
      },
      "id": "node/6779067770"
    },
    {
      "type": "Feature",
      "properties": {
        "@id": "node/6779093940",
        "amenity": "bicycle_rental",
        "brand": "Villo!",
        "capacity": "24",
        "name": "Dubois",
        "network": "Villo!",
        "operator": "JCDecaux",
        "ref": "271"
      },
      "geometry": {
        "type": "Point",
        "coordinates": [
          4.3096202,
          50.8511221
        ]
      },
      "id": "node/6779093940"
    },
    {
      "type": "Feature",
      "properties": {
        "@id": "node/6779095951",
        "amenity": "bicycle_rental",
        "brand": "Villo!",
        "capacity": "29",
        "name": "Gare de l'Ouest - Weststation",
        "name:fr": "Gare de l'Ouest",
        "name:nl": "Weststation",
        "network": "Villo!",
        "operator": "JCDecaux",
        "ref": "193"
      },
      "geometry": {
        "type": "Point",
        "coordinates": [
          4.3207864,
          50.8488892
        ]
      },
      "id": "node/6779095951"
    },
    {
      "type": "Feature",
      "properties": {
        "@id": "node/6779101938",
        "amenity": "bicycle_rental",
        "brand": "Villo!",
        "capacity": "24",
        "name": "Piscine Louis Namèche - Louis Nameche-zwembad",
        "name:fr": "Piscine Louis Namèche",
        "name:nl": "Louis Nameche-zwembad",
        "network": "Villo!",
        "operator": "JCDecaux",
        "ref": "171"
      },
      "geometry": {
        "type": "Point",
        "coordinates": [
          4.3120973,
          50.8547662
        ]
      },
      "id": "node/6779101938"
    },
    {
      "type": "Feature",
      "properties": {
        "@id": "node/6779112986",
        "amenity": "bicycle_rental",
        "brand": "Villo!",
        "capacity": "24",
        "name": "Karreveld",
        "network": "Villo!",
        "operator": "JCDecaux",
        "ref": "97"
      },
      "geometry": {
        "type": "Point",
        "coordinates": [
          4.3187056,
          50.8579639
        ]
      },
      "id": "node/6779112986"
    },
    {
      "type": "Feature",
      "properties": {
        "@id": "node/6779132193",
        "amenity": "bicycle_rental",
        "brand": "Villo!",
        "capacity": "24",
        "name": "Comte de Flandre - Graaf van Vlaanderen",
        "name:fr": "Comte de Flandre",
        "name:nl": "Graaf van Vlaanderen",
        "network": "Villo!",
        "operator": "JCDecaux",
        "ref": "17"
      },
      "geometry": {
        "type": "Point",
        "coordinates": [
          4.3396425,
          50.8552669
        ]
      },
      "id": "node/6779132193"
    },
    {
      "type": "Feature",
      "properties": {
        "@id": "node/6779160511",
        "amenity": "bicycle_rental",
        "brand": "Villo!",
        "capacity": "20",
        "name": "Tour et Taxis - Thurn & Taxis",
        "name:fr": "Tour et Taxis",
        "name:nl": "Thurn & Taxis",
        "network": "Villo!",
        "operator": "JCDecaux",
        "ref": "54"
      },
      "geometry": {
        "type": "Point",
        "coordinates": [
          4.3460362,
          50.8635567
        ]
      },
      "id": "node/6779160511"
    },
    {
      "type": "Feature",
      "properties": {
        "@id": "node/6779174524",
        "amenity": "bicycle_rental",
        "brand": "Villo!",
        "capacity": "20",
        "name": "Karel Bogaert",
        "network": "Villo!",
        "operator": "JCDecaux",
        "ref": "307"
      },
      "geometry": {
        "type": "Point",
        "coordinates": [
          4.3475727,
          50.8818573
        ]
      },
      "id": "node/6779174524"
    },
    {
      "type": "Feature",
      "properties": {
        "@id": "node/6779174525",
        "amenity": "bicycle_rental",
        "brand": "Villo!",
        "capacity": "25",
        "name": "Place Bockstael - Bockstaelplaats",
        "name:fr": "Place Bockstael",
        "name:nl": "Bockstaelplaats",
        "network": "Villo!",
        "operator": "JCDecaux",
        "ref": "95"
      },
      "geometry": {
        "type": "Point",
        "coordinates": [
          4.347908,
          50.8780953
        ]
      },
      "id": "node/6779174525"
    },
    {
      "type": "Feature",
      "properties": {
        "@id": "node/6779204128",
        "amenity": "bicycle_rental",
        "brand": "Villo!",
        "name": "Athénée de Jette - Atheneum van Jette",
        "name:fr": "Athénée de Jette",
        "name:nl": "Atheneum van Jette",
        "network": "Villo!",
        "operator": "JCDecaux",
        "ref": "89"
      },
      "geometry": {
        "type": "Point",
        "coordinates": [
          4.3298406,
          50.8710548
        ]
      },
      "id": "node/6779204128"
    },
    {
      "type": "Feature",
      "properties": {
        "@id": "node/6779211694",
        "amenity": "bicycle_rental",
        "brand": "Villo!",
        "capacity": "20",
        "name": "Cimetière de Jette - Kerkhof Jette",
        "name:fr": "Cimetière de Jette",
        "name:nl": "Kerkhof Jette",
        "network": "Villo!",
        "operator": "JCDecaux",
        "ref": "165"
      },
      "geometry": {
        "type": "Point",
        "coordinates": [
          4.3342451,
          50.8796594
        ]
      },
      "id": "node/6779211694"
    },
    {
      "type": "Feature",
      "properties": {
        "@id": "node/6779219494",
        "amenity": "bicycle_rental",
        "brand": "Villo!",
        "capacity": "25",
        "name": "GC Essegem",
        "network": "Villo!",
        "operator": "JCDecaux",
        "ref": "166"
      },
      "geometry": {
        "type": "Point",
        "coordinates": [
          4.337165,
          50.8761017
        ]
      },
      "id": "node/6779219494"
    },
    {
      "type": "Feature",
      "properties": {
        "@id": "node/6779348241",
        "amenity": "bicycle_rental",
        "brand": "Villo!",
        "capacity": "19",
        "name": "Sacré-Cœur de Jette - Heilige Hart van Jette",
        "name:fr": "Sacré-Cœur de Jette",
        "name:nl": "Heilige Hart van Jette",
        "network": "Villo!",
        "operator": "JCDecaux",
        "ref": "321"
      },
      "geometry": {
        "type": "Point",
        "coordinates": [
          4.3303587,
          50.8841064
        ]
      },
      "id": "node/6779348241"
    },
    {
      "type": "Feature",
      "properties": {
        "@id": "node/6779354119",
        "amenity": "bicycle_rental",
        "brand": "Villo!",
        "capacity": "24",
        "name": "Lenoir",
        "network": "Villo!",
        "operator": "JCDecaux",
        "ref": "92"
      },
      "geometry": {
        "type": "Point",
        "coordinates": [
          4.3299928,
          50.8759564
        ]
      },
      "id": "node/6779354119"
    },
    {
      "type": "Feature",
      "properties": {
        "@id": "node/6779365835",
        "amenity": "bicycle_rental",
        "brand": "Villo!",
        "capacity": "20",
        "name": "Union Saint-Gilloise - Sint-Gillis Unie",
        "name:fr": "Union Saint-Gilloise",
        "name:nl": "Sint-Gillis Unie",
        "network": "Villo!",
        "operator": "JCDecaux",
        "ref": "238"
      },
      "geometry": {
        "type": "Point",
        "coordinates": [
          4.3308055,
          50.8202247
        ]
      },
      "id": "node/6779365835"
    },
    {
      "type": "Feature",
      "properties": {
        "@id": "node/6779366678",
        "amenity": "bicycle_rental",
        "brand": "Villo!",
        "capacity": "25",
        "name": "Woeste",
        "network": "Villo!",
        "operator": "JCDecaux",
        "ref": "88"
      },
      "geometry": {
        "type": "Point",
        "coordinates": [
          4.3342246,
          50.873397
        ]
      },
      "id": "node/6779366678"
    },
    {
      "type": "Feature",
      "properties": {
        "@id": "node/6779375101",
        "amenity": "bicycle_rental",
        "brand": "Villo!",
        "capacity": "20",
        "name": "UZ Brussel",
        "network": "Villo!",
        "operator": "JCDecaux",
        "ref": "320"
      },
      "geometry": {
        "type": "Point",
        "coordinates": [
          4.3109265,
          50.8864476
        ]
      },
      "id": "node/6779375101"
    },
    {
      "type": "Feature",
      "properties": {
        "@id": "node/6779380250",
        "amenity": "bicycle_rental",
        "brand": "Villo!",
        "capacity": "20",
        "name": "Pannenhuis",
        "network": "Villo!",
        "operator": "JCDecaux",
        "ref": "82"
      },
      "geometry": {
        "type": "Point",
        "coordinates": [
          4.3410237,
          50.8727097
        ]
      },
      "id": "node/6779380250"
    },
    {
      "type": "Feature",
      "properties": {
        "@id": "node/6779384121",
        "amenity": "bicycle_rental",
        "brand": "Villo!",
        "capacity": "24",
        "name": "Maison communale de Jette - Jette gemeentehuis",
        "name:fr": "Maison communale de Jette",
        "name:nl": "Jette gemeentehuis",
        "network": "Villo!",
        "operator": "JCDecaux",
        "ref": "86"
      },
      "geometry": {
        "type": "Point",
        "coordinates": [
          4.3245745,
          50.8761098
        ]
      },
      "id": "node/6779384121"
    },
    {
      "type": "Feature",
      "properties": {
        "@id": "node/6779394632",
        "amenity": "bicycle_rental",
        "brand": "Villo!",
        "capacity": "25",
        "name": "Union - Unie",
        "name:fr": "Union",
        "name:nl": "Unie",
        "network": "Villo!",
        "operator": "JCDecaux",
        "ref": "226"
      },
      "geometry": {
        "type": "Point",
        "coordinates": [
          4.3249793,
          50.8197873
        ]
      },
      "id": "node/6779394632"
    },
    {
      "type": "Feature",
      "properties": {
        "@id": "node/6779394723",
        "amenity": "bicycle_rental",
        "brand": "Villo!",
        "capacity": "20",
        "name": "Docks Bruxsel",
        "network": "Villo!",
        "operator": "JCDecaux",
        "ref": "364"
      },
      "geometry": {
        "type": "Point",
        "coordinates": [
          4.374634,
          50.8792086
        ]
      },
      "id": "node/6779394723"
    },
    {
      "type": "Feature",
      "properties": {
        "@id": "node/6779410629",
        "amenity": "bicycle_rental",
        "brand": "Villo!",
        "capacity": "25",
        "name": "St Denis - St Denijs",
        "name:fr": "St Denis",
        "name:nl": "St Denijs",
        "network": "Villo!",
        "operator": "JCDecaux",
        "ref": "234"
      },
      "geometry": {
        "type": "Point",
        "coordinates": [
          4.3173609,
          50.8097541
        ]
      },
      "id": "node/6779410629"
    },
    {
      "type": "Feature",
      "properties": {
        "@id": "node/6779411038",
        "amenity": "bicycle_rental",
        "brand": "Villo!",
        "capacity": "25",
        "name": "Maison communale de Forest - Vorst gemeentehuis",
        "name:fr": "Maison communale de Forest",
        "name:nl": "Vorst gemeentehuis",
        "network": "Villo!",
        "operator": "JCDecaux",
        "ref": "236"
      },
      "geometry": {
        "type": "Point",
        "coordinates": [
          4.318856,
          50.8124477
        ]
      },
      "id": "node/6779411038"
    },
    {
      "type": "Feature",
      "properties": {
        "@id": "node/6780676028",
        "amenity": "bicycle_rental",
        "brand": "Villo!",
        "capacity": "20",
        "name": "Notre Dame - Onze Lieve Vrouw",
        "name:fr": "Notre Dame",
        "name:nl": "Onze Lieve Vrouw",
        "network": "Villo!",
        "operator": "JCDecaux",
        "ref": "264"
      },
      "geometry": {
        "type": "Point",
        "coordinates": [
          4.3976009,
          50.8709931
        ]
      },
      "id": "node/6780676028"
    },
    {
      "type": "Feature",
      "properties": {
        "@id": "node/6780680353",
        "amenity": "bicycle_rental",
        "brand": "Villo!",
        "capacity": "25",
        "name": "Liedts",
        "network": "Villo!",
        "operator": "JCDecaux",
        "ref": "139"
      },
      "geometry": {
        "type": "Point",
        "coordinates": [
          4.3667513,
          50.8639543
        ]
      },
      "id": "node/6780680353"
    },
    {
      "type": "Feature",
      "properties": {
        "@id": "node/6780693875",
        "amenity": "bicycle_rental",
        "brand": "Villo!",
        "capacity": "21",
        "name": "Terdelt",
        "network": "Villo!",
        "operator": "JCDecaux",
        "ref": "190"
      },
      "geometry": {
        "type": "Point",
        "coordinates": [
          4.3907588,
          50.8679635
        ]
      },
      "id": "node/6780693875"
    },
    {
      "type": "Feature",
      "properties": {
        "@id": "node/6780721220",
        "amenity": "bicycle_rental",
        "brand": "Villo!",
        "capacity": "20",
        "name": "JCDecaux",
        "network": "Villo!",
        "operator": "JCDecaux",
        "ref": "359"
      },
      "geometry": {
        "type": "Point",
        "coordinates": [
          4.3575165,
          50.8676828
        ]
      },
      "id": "node/6780721220"
    },
    {
      "type": "Feature",
      "properties": {
        "@id": "node/6784596676",
        "amenity": "bicycle_rental",
        "brand": "Villo!",
        "capacity": "20",
        "name": "Parc Duden - Duden park",
        "name:fr": "Parc Duden",
        "name:nl": "Duden park",
        "network": "Villo!",
        "operator": "JCDecaux",
        "ref": "233"
      },
      "geometry": {
        "type": "Point",
        "coordinates": [
          4.3310233,
          50.8139724
        ]
      },
      "id": "node/6784596676"
    },
    {
      "type": "Feature",
      "properties": {
        "@id": "node/6784605026",
        "amenity": "bicycle_rental",
        "brand": "Villo!",
        "capacity": "24",
        "name": "Domaine - Domein",
        "name:fr": "Domaine",
        "name:nl": "Domein",
        "network": "Villo!",
        "operator": "JCDecaux",
        "ref": "232"
      },
      "geometry": {
        "type": "Point",
        "coordinates": [
          4.3291298,
          50.8105453
        ]
      },
      "id": "node/6784605026"
    },
    {
      "type": "Feature",
      "properties": {
        "@id": "node/6784608411",
        "amenity": "bicycle_rental",
        "brand": "Villo!",
        "capacity": "25",
        "name": "Darwin",
        "network": "Villo!",
        "operator": "JCDecaux",
        "ref": "239"
      },
      "geometry": {
        "type": "Point",
        "coordinates": [
          4.3504223,
          50.8177742
        ]
      },
      "id": "node/6784608411"
    },
    {
      "type": "Feature",
      "properties": {
        "@id": "node/6784616142",
        "amenity": "bicycle_rental",
        "brand": "Villo!",
        "capacity": "24",
        "name": "Forest National - Vorst Nationaal",
        "name:fr": "Forest National",
        "name:nl": "Vorst Nationaal",
        "network": "Villo!",
        "operator": "JCDecaux",
        "ref": "235"
      },
      "geometry": {
        "type": "Point",
        "coordinates": [
          4.3250503,
          50.8100656
        ]
      },
      "id": "node/6784616142"
    },
    {
      "type": "Feature",
      "properties": {
        "@id": "node/6784625790",
        "amenity": "bicycle_rental",
        "brand": "Villo!",
        "capacity": "18",
        "name": "Zaman Forest National - Zaman Vorst Nationaal",
        "name:fr": "Zaman Forest National",
        "name:nl": "Zaman Vorst Nationaal",
        "network": "Villo!",
        "operator": "JCDecaux",
        "ref": "229"
      },
      "geometry": {
        "type": "Point",
        "coordinates": [
          4.3246786,
          50.8136358
        ]
      },
      "id": "node/6784625790"
    },
    {
      "type": "Feature",
      "properties": {
        "@id": "node/6784646401",
        "amenity": "bicycle_rental",
        "brand": "Villo!",
        "capacity": "19",
        "name": "Fonsny",
        "network": "Villo!",
        "operator": "JCDecaux",
        "ref": "349"
      },
      "geometry": {
        "type": "Point",
        "coordinates": [
          4.3348371,
          50.8334048
        ]
      },
      "id": "node/6784646401"
    },
    {
      "type": "Feature",
      "properties": {
        "@id": "node/6784661540",
        "amenity": "bicycle_rental",
        "brand": "Villo!",
        "capacity": "24",
        "name": "Général Baron - Generaal Baron",
        "name:fr": "Général Baron",
        "name:nl": "Generaal Baron",
        "network": "Villo!",
        "operator": "JCDecaux",
        "ref": "75"
      },
      "geometry": {
        "type": "Point",
        "coordinates": [
          4.3404442,
          50.8259101
        ]
      },
      "id": "node/6784661540"
    },
    {
      "type": "Feature",
      "properties": {
        "@id": "node/6784678384",
        "amenity": "bicycle_rental",
        "brand": "Villo!",
        "capacity": "23",
        "name": "Parvis St Antoine - St Antonius Voorplein",
        "name:fr": "Parvis St Antoine",
        "name:nl": "St Antonius Voorplein",
        "network": "Villo!",
        "operator": "JCDecaux",
        "ref": "237"
      },
      "geometry": {
        "type": "Point",
        "coordinates": [
          4.3305058,
          50.8279191
        ]
      },
      "id": "node/6784678384"
    },
    {
      "type": "Feature",
      "properties": {
        "@id": "node/6784687251",
        "amenity": "bicycle_rental",
        "brand": "Villo!",
        "capacity": "25",
        "name": "Rochefort",
        "network": "Villo!",
        "operator": "JCDecaux",
        "ref": "224"
      },
      "geometry": {
        "type": "Point",
        "coordinates": [
          4.3341152,
          50.8243661
        ]
      },
      "id": "node/6784687251"
    },
    {
      "type": "Feature",
      "properties": {
        "@id": "node/7841603775",
        "amenity": "bicycle_rental",
        "brand": "Villo!",
        "capacity": "18",
        "name": "Patinage",
        "network": "Villo!",
        "note": "Official name is only in French - no Dutch translation",
        "operator": "JCDecaux",
        "ref": "227"
      },
      "geometry": {
        "type": "Point",
        "coordinates": [
          4.3198351,
          50.8166095
        ]
      },
      "id": "node/7841603775"
    }
  ]
}